{"type": "FeatureCollection", "features": [{"type": "Feature", "properties": {"LINK_ID": "4180066000", "ROAD_NAME": "신항북로", "ROAD_RANK": "107", "LANES": 4, "MAX_SPD": 70, "LENGTH": 305.644289672862, "count": 2}, "geometry": {"type": "MultiLineString", "coordinates": [[[128.79750869257848, 35.08614411334973], [128.79788686551353, 35.086066002066104], [128.79811180294965, 35.086024678556896], [128.79839833981708, 35.08599183331696], [128.7986928398136, 35.08597267952575], [128.800838035972, 35.08594970909276]]]}}, {"type": "Feature", "properties": {"LINK_ID": "4180061901", "ROAD_NAME": "신항로", "ROAD_RANK": "107", "LANES": 3, "MAX_SPD": 60, "LENGTH": 11.993459661593, "count": 1}, "geometry": {"type": "MultiLineString", "coordinates": [[[128.81223027844328, 35.083119372949675], [128.81236174750123, 35.08311945901778]]]}}, {"type": "Feature", "properties": {"LINK_ID": "4180061601", "ROAD_NAME": "신항로", "ROAD_RANK": "107", "LANES": 3, "MAX_SPD": 60, "LENGTH": 12.000463250458, "count": 2}, "geometry": {"type": "MultiLineString", "coordinates": [[[128.80114052930003, 35.08321124911268], [128.80100898278036, 35.08321115930605]]]}}, {"type": "Feature", "properties": {"LINK_ID": "4180059902", "ROAD_NAME": "신항로", "ROAD_RANK": "107", "LANES": 4, "MAX_SPD": 60, "LENGTH": 427.281617442385, "count": 27}, "geometry": {"type": "MultiLineString", "coordinates": [[[128.76520642791775, 35.08308685456833], [128.76989023016571, 35.08307578862432]]]}}, {"type": "Feature", "properties": {"LINK_ID": "1411030500", "ROAD_NAME": "신항남로", "ROAD_RANK": "104", "LANES": 3, "MAX_SPD": 60, "LENGTH": 471.045344383567, "count": 3}, "geometry": {"type": "MultiLineString", "coordinates": [[[128.83474244131108, 35.074157473947636], [128.83474038082474, 35.0707627686242], [128.8347170292975, 35.070071072009526], [128.8346900911283, 35.06991489334677]]]}}, {"type": "Feature", "properties": {"LINK_ID": "4180060500", "ROAD_NAME": "신항로", "ROAD_RANK": "107", "LANES": 3, "MAX_SPD": 60, "LENGTH": 410.097975734641, "count": 19}, "geometry": {"type": "MultiLineString", "coordinates": [[[128.79625549532727, 35.08321195023358], [128.79384804430796, 35.08320998989485], [128.79176007728097, 35.08321126916516]]]}}, {"type": "Feature", "properties": {"LINK_ID": "4180034801", "ROAD_NAME": "신항로", "ROAD_RANK": "107", "LANES": 4, "MAX_SPD": 60, "LENGTH": 12.140727036903, "count": 3}, "geometry": {"type": "MultiLineString", "coordinates": [[[128.7963721268092, 35.083103851313574], [128.79639236111444, 35.083211976310714]]]}}, {"type": "Feature", "properties": {"LINK_ID": "4180062700", "ROAD_NAME": "신항4로", "ROAD_RANK": "107", "LANES": 3, "MAX_SPD": 60, "LENGTH": 138.245515611582, "count": 2}, "geometry": {"type": "MultiLineString", "coordinates": [[[128.81834040268862, 35.08323863638847], [128.81834051590286, 35.08333313436045], [128.81834558792804, 35.084484311724204]]]}}, {"type": "Feature", "properties": {"LINK_ID": "1410040300", "ROAD_NAME": "녹산산업대로", "ROAD_RANK": "104", "LANES": 3, "MAX_SPD": 70, "LENGTH": 287.802353729609, "count": 1}, "geometry": {"type": "MultiLineString", "coordinates": [[[128.83951514817687, 35.088899028406374], [128.84267014852955, 35.08890095449712]]]}}, {"type": "Feature", "properties": {"LINK_ID": "1410063501", "ROAD_NAME": "녹산산업대로", "ROAD_RANK": "104", "LANES": 3, "MAX_SPD": 70, "LENGTH": 52.247258939124, "count": 1}, "geometry": {"type": "MultiLineString", "coordinates": [[[128.8267908853966, 35.09417507320601], [128.8267959876557, 35.09417099154505], [128.82719981586857, 35.09384542179882]]]}}, {"type": "Feature", "properties": {"LINK_ID": "1410736600", "ROAD_NAME": "만금로", "ROAD_RANK": "104", "LANES": 2, "MAX_SPD": 40, "LENGTH": 167.064696738054, "count": 1}, "geometry": {"type": "MultiLineString", "coordinates": [[[128.82266950592975, 35.09906204416048], [128.8232181485092, 35.100498285354156]]]}}, {"type": "Feature", "properties": {"LINK_ID": "4180068100", "ROAD_NAME": "신항배후로", "ROAD_RANK": "107", "LANES": 4, "MAX_SPD": 80, "LENGTH": 477.87255096546, "count": 2}, "geometry": {"type": "MultiLineString", "coordinates": [[[128.7652259555981, 35.08697433837256], [128.76522146083465, 35.0912803628712]]]}}, {"type": "Feature", "properties": {"LINK_ID": "4180076400", "ROAD_NAME": "신항동로", "ROAD_RANK": "107", "LANES": 3, "MAX_SPD": 30, "LENGTH": 226.202607071951, "count": 1}, "geometry": {"type": "MultiLineString", "coordinates": [[[128.81679863928403, 35.08895308909364], [128.81431890362265, 35.088947174278175]]]}}, {"type": "Feature", "properties": {"LINK_ID": "4180066600", "ROAD_NAME": "신항북로", "ROAD_RANK": "107", "LANES": 4, "MAX_SPD": 70, "LENGTH": 124.7007184313, "count": 1}, "geometry": {"type": "MultiLineString", "coordinates": [[[128.8142171995014, 35.0861071130333], [128.81285022358415, 35.086111261402664]]]}}, {"type": "Feature", "properties": {"LINK_ID": "4180076900", "ROAD_NAME": "신항동로", "ROAD_RANK": "107", "LANES": 3, "MAX_SPD": 50, "LENGTH": 354.118337366787, "count": 1}, "geometry": {"type": "MultiLineString", "coordinates": [[[128.8183473456639, 35.08884764799134], [128.81908878858295, 35.08883827790811], [128.8195787125872, 35.08884236222273], [128.8199605532433, 35.08888376894899], [128.8203315454192, 35.08897274396995], [128.82092772111034, 35.08923276730021], [128.82118999187404, 35.08941363211176], [128.82178332624832, 35.08992722110547]]]}}, {"type": "Feature", "properties": {"LINK_ID": "4180080601", "ROAD_NAME": "신항10로", "ROAD_RANK": "107", "LANES": 4, "MAX_SPD": 80, "LENGTH": 12.000027507056, "count": 1}, "geometry": {"type": "MultiLineString", "coordinates": [[[128.7652208960544, 35.09138849534354], [128.7650893432843, 35.0913876646322]]]}}, {"type": "Feature", "properties": {"LINK_ID": "1411030701", "ROAD_NAME": "신항남로", "ROAD_RANK": "104", "LANES": 3, "MAX_SPD": 30, "LENGTH": 12.000046815329, "count": 1}, "geometry": {"type": "MultiLineString", "coordinates": [[[128.83482030744324, 35.06989971244042], [128.8346900911283, 35.06991489334677]]]}}, {"type": "Feature", "properties": {"LINK_ID": "1410702302", "ROAD_NAME": "신항로", "ROAD_RANK": "104", "LANES": 3, "MAX_SPD": 60, "LENGTH": 276.076633328713, "count": 17}, "geometry": {"type": "MultiLineString", "coordinates": [[[128.82136667428657, 35.083241917988815], [128.81834040268862, 35.08323863638847]]]}}, {"type": "Feature", "properties": {"LINK_ID": "1410122706", "ROAD_NAME": "신항남로", "ROAD_RANK": "104", "LANES": 2, "MAX_SPD": 80, "LENGTH": 229.178287824883, "count": 1}, "geometry": {"type": "MultiLineString", "coordinates": [[[128.83477379230703, 35.08631847515712], [128.83474573638134, 35.0868127650421], [128.83470567930286, 35.087375568376], [128.834633730854, 35.08814802120617], [128.83462588004767, 35.088379657946184]]]}}, {"type": "Feature", "properties": {"LINK_ID": "1410957300", "ROAD_NAME": "가덕해안로", "ROAD_RANK": "104", "LANES": 1, "MAX_SPD": 20, "LENGTH": 403.214643496229, "count": 3}, "geometry": {"type": "MultiLineString", "coordinates": [[[128.83157044433537, 35.06685121025002], [128.83156050782787, 35.066853859864345], [128.83109749142358, 35.06688815348479], [128.8307246526733, 35.0668624390212], [128.82736554480653, 35.06622737653604], [128.8272513942058, 35.066190254665464]]]}}, {"type": "Feature", "properties": {"LINK_ID": "1411031901", "ROAD_NAME": "신항남로", "ROAD_RANK": "104", "LANES": 3, "MAX_SPD": 60, "LENGTH": 437.837590658234, "count": 1}, "geometry": {"type": "MultiLineString", "coordinates": [[[128.82673682954615, 35.06649280648944], [128.82584720127548, 35.06619507042817], [128.8251451116473, 35.06587723338473], [128.8244562298048, 35.06546679796116], [128.82390857585978, 35.06501662375385], [128.82348711747744, 35.06466664637718], [128.82287411595158, 35.06422849168242]]]}}, {"type": "Feature", "properties": {"LINK_ID": "4180139800", "ROAD_NAME": "-", "ROAD_RANK": "107", "LANES": 2, "MAX_SPD": 80, "LENGTH": 436.855448867995, "count": 1}, "geometry": {"type": "MultiLineString", "coordinates": [[[128.82387586820303, 35.10237127788807], [128.82393511905443, 35.103103827891076], [128.82395404384113, 35.10368770879117], [128.82393315029722, 35.10418551931857], [128.82387395598045, 35.10470860481559], [128.82372140200914, 35.1054141747518], [128.82350136615682, 35.1060471019738], [128.82341454148795, 35.10625495547765]]]}}, {"type": "Feature", "properties": {"LINK_ID": "1410123004", "ROAD_NAME": "신항남로", "ROAD_RANK": "104", "LANES": 2, "MAX_SPD": 80, "LENGTH": 229.403546219566, "count": 1}, "geometry": {"type": "MultiLineString", "coordinates": [[[128.83449441302838, 35.08837664722581], [128.8345023751618, 35.08814183065246], [128.83457442641637, 35.087368283153765], [128.8346143691069, 35.08680708754049], [128.83464239015882, 35.086313435803284]]]}}, {"type": "Feature", "properties": {"LINK_ID": "1410957217", "ROAD_NAME": "가덕해안로", "ROAD_RANK": "104", "LANES": 1, "MAX_SPD": 20, "LENGTH": 395.304263793963, "count": 3}, "geometry": {"type": "MultiLineString", "coordinates": [[[128.82729976542, 35.06608970624976], [128.82740468838594, 35.06612382713499], [128.8307449876199, 35.066755334311125], [128.8310970858019, 35.06677961808095], [128.8315339911127, 35.06674725815853]]]}}, {"type": "Feature", "properties": {"LINK_ID": "1410122600", "ROAD_NAME": "신항남로", "ROAD_RANK": "104", "LANES": 2, "MAX_SPD": 80, "LENGTH": 486.826367712496, "count": 1}, "geometry": {"type": "MultiLineString", "coordinates": [[[128.83444913620787, 35.09340011747714], [128.8344496333154, 35.08931930835678], [128.83447052464768, 35.08901400606842]]]}}, {"type": "Feature", "properties": {"LINK_ID": "1410039402", "ROAD_NAME": "녹산산업대로", "ROAD_RANK": "104", "LANES": 3, "MAX_SPD": 70, "LENGTH": 93.670105788229, "count": 1}, "geometry": {"type": "MultiLineString", "coordinates": [[[128.8333638902596, 35.088994960540504], [128.83338731280332, 35.088986967822116], [128.83346397164829, 35.08896266884097], [128.83355388090706, 35.08894013853787], [128.83364501641822, 35.0889248290589], [128.83374499676862, 35.08891314286687], [128.83388172653727, 35.0889048569547], [128.83425079965437, 35.088896453098265], [128.8343758051527, 35.088895342645074]]]}}, {"type": "Feature", "properties": {"LINK_ID": "1411101807", "ROAD_NAME": "신항남로", "ROAD_RANK": "104", "LANES": 3, "MAX_SPD": 60, "LENGTH": 59.101110293213, "count": 2}, "geometry": {"type": "MultiLineString", "coordinates": [[[128.821711078124, 35.06378466505563], [128.82111039396537, 35.06358548151333]]]}}, {"type": "Feature", "properties": {"LINK_ID": "1410123005", "ROAD_NAME": "신항남로", "ROAD_RANK": "104", "LANES": 2, "MAX_SPD": 80, "LENGTH": 340.270056914024, "count": 2}, "geometry": {"type": "MultiLineString", "coordinates": [[[128.83464239015882, 35.086313435803284], [128.83464831710126, 35.08620901936763], [128.83467726870154, 35.08521370280811], [128.83466928459268, 35.08479450196614], [128.8346652786099, 35.08421065238828], [128.83467427590426, 35.083741844063574], [128.83466794122486, 35.08333360845721], [128.83466792332686, 35.083247948436544]]]}}, {"type": "Feature", "properties": {"LINK_ID": "4180061602", "ROAD_NAME": "신항로", "ROAD_RANK": "107", "LANES": 3, "MAX_SPD": 60, "LENGTH": 275.221476693728, "count": 18}, "geometry": {"type": "MultiLineString", "coordinates": [[[128.80415744261157, 35.083215859179525], [128.80114052930003, 35.08321124911268]]]}}, {"type": "Feature", "properties": {"LINK_ID": "4180067800", "ROAD_NAME": "신항4로", "ROAD_RANK": "107", "LANES": 3, "MAX_SPD": 50, "LENGTH": 87.840635568982, "count": 1}, "geometry": {"type": "MultiLineString", "coordinates": [[[128.81823066210197, 35.08690154605133], [128.8182256242699, 35.086110055335254]]]}}, {"type": "Feature", "properties": {"LINK_ID": "1411039500", "ROAD_NAME": "녹산산단46로", "ROAD_RANK": "104", "LANES": 1, "MAX_SPD": 60, "LENGTH": 232.904903127652, "count": 1}, "geometry": {"type": "MultiLineString", "coordinates": [[[128.82546926940168, 35.09524077346308], [128.8247942829816, 35.09466077416416], [128.82479428344428, 35.09458792819619], [128.82484762663412, 35.09452865982083], [128.82583856433303, 35.09371754607178]]]}}, {"type": "Feature", "properties": {"LINK_ID": "1410736200", "ROAD_NAME": "녹산산업대로", "ROAD_RANK": "104", "LANES": 2, "MAX_SPD": 70, "LENGTH": 138.077516703088, "count": 2}, "geometry": {"type": "MultiLineString", "coordinates": [[[128.8221120987286, 35.09794696649042], [128.82319310410324, 35.097075980209894]]]}}, {"type": "Feature", "properties": {"LINK_ID": "1411101804", "ROAD_NAME": "신항남로", "ROAD_RANK": "104", "LANES": 3, "MAX_SPD": 60, "LENGTH": 494.99762517784, "count": 2}, "geometry": {"type": "MultiLineString", "coordinates": [[[128.82111039396537, 35.06358548151333], [128.8211075269794, 35.06358453082704], [128.81983188090064, 35.06335346905857], [128.81974090686438, 35.06333699007919], [128.8158158161194, 35.06270339878037], [128.81579408891892, 35.0626996667716]]]}}, {"type": "Feature", "properties": {"LINK_ID": "4180062302", "ROAD_NAME": "신항로", "ROAD_RANK": "107", "LANES": 3, "MAX_SPD": 60, "LENGTH": 266.734995256036, "count": 3}, "geometry": {"type": "MultiLineString", "coordinates": [[[128.81528562357792, 35.083119429604814], [128.81537139859728, 35.08311942767686], [128.81820946646636, 35.083130189088614]]]}}, {"type": "Feature", "properties": {"LINK_ID": "1410738402", "ROAD_NAME": "녹산산업대로", "ROAD_RANK": "104", "LANES": 2, "MAX_SPD": 70, "LENGTH": 144.883741745206, "count": 2}, "geometry": {"type": "MultiLineString", "coordinates": [[[128.82556317598792, 35.095165033445674], [128.82669686521103, 35.094250644036094]]]}}, {"type": "Feature", "properties": {"LINK_ID": "4180062702", "ROAD_NAME": "신항4로", "ROAD_RANK": "107", "LANES": 3, "MAX_SPD": 60, "LENGTH": 12.000019418801, "count": 2}, "geometry": {"type": "MultiLineString", "coordinates": [[[128.81834057821555, 35.08313050841346], [128.81834040268862, 35.08323863638847]]]}}, {"type": "Feature", "properties": {"LINK_ID": "4180060601", "ROAD_NAME": "안골로108번길", "ROAD_RANK": "107", "LANES": 2, "MAX_SPD": 60, "LENGTH": 12.279581115875, "count": 3}, "geometry": {"type": "MultiLineString", "coordinates": [[[128.78724968875648, 35.084421194502866], [128.78722360986333, 35.08452974643359]]]}}, {"type": "Feature", "properties": {"LINK_ID": "4180077701", "ROAD_NAME": "신항3로", "ROAD_RANK": "107", "LANES": 3, "MAX_SPD": 70, "LENGTH": 12.000119481445, "count": 1}, "geometry": {"type": "MultiLineString", "coordinates": [[[128.82301198525667, 35.090946953905544], [128.8229178794011, 35.0910225117911]]]}}, {"type": "Feature", "properties": {"LINK_ID": "1411061201", "ROAD_NAME": "만금로", "ROAD_RANK": "104", "LANES": 2, "MAX_SPD": 40, "LENGTH": 11.28582681487, "count": 1}, "geometry": {"type": "MultiLineString", "coordinates": [[[128.8231262029198, 35.10062854376313], [128.8230926225452, 35.10053066784988]]]}}, {"type": "Feature", "properties": {"LINK_ID": "4180060502", "ROAD_NAME": "신항로", "ROAD_RANK": "107", "LANES": 3, "MAX_SPD": 60, "LENGTH": 402.857313594819, "count": 21}, "geometry": {"type": "MultiLineString", "coordinates": [[[128.79176007728097, 35.08321126916516], [128.7917497560564, 35.083211275399485], [128.78813116548022, 35.08318598597701], [128.78734428679763, 35.08317404381412]]]}}, {"type": "Feature", "properties": {"LINK_ID": "1411101705", "ROAD_NAME": "신항남로", "ROAD_RANK": "104", "LANES": 3, "MAX_SPD": 60, "LENGTH": 122.834003365295, "count": 3}, "geometry": {"type": "MultiLineString", "coordinates": [[[128.81990137449185, 35.06312538542452], [128.82118949349677, 35.06340236677587], [128.8212029682837, 35.063407202983655]]]}}, {"type": "Feature", "properties": {"LINK_ID": "4180061200", "ROAD_NAME": "신항로", "ROAD_RANK": "107", "LANES": 3, "MAX_SPD": 60, "LENGTH": 421.155437687584, "count": 18}, "geometry": {"type": "MultiLineString", "coordinates": [[[128.80100898278036, 35.08321115930605], [128.79639236111444, 35.083211976310714]]]}}, {"type": "Feature", "properties": {"LINK_ID": "4180059500", "ROAD_NAME": "신항로", "ROAD_RANK": "107", "LANES": 2, "MAX_SPD": 60, "LENGTH": 290.814755761815, "count": 18}, "geometry": {"type": "MultiLineString", "coordinates": [[[128.77760438267532, 35.08316812715596], [128.77441696474386, 35.08321269020167]]]}}, {"type": "Feature", "properties": {"LINK_ID": "4180069403", "ROAD_NAME": "신항8로", "ROAD_RANK": "107", "LANES": 2, "MAX_SPD": 60, "LENGTH": 291.563545163774, "count": 1}, "geometry": {"type": "MultiLineString", "coordinates": [[[128.7775960620072, 35.08700419577404], [128.77679266934865, 35.086999524249904], [128.77675620360628, 35.08699975127675], [128.77662465473327, 35.087000569891956], [128.77572391511302, 35.087006169287264], [128.77439991444024, 35.08701438880623]]]}}, {"type": "Feature", "properties": {"LINK_ID": "4180068200", "ROAD_NAME": "신항배후로", "ROAD_RANK": "107", "LANES": 4, "MAX_SPD": 80, "LENGTH": 477.872550965453, "count": 2}, "geometry": {"type": "MultiLineString", "coordinates": [[[128.76508990504752, 35.0912802701185], [128.7650944071408, 35.0869742454201]]]}}, {"type": "Feature", "properties": {"LINK_ID": "1411101710", "ROAD_NAME": "신항남로", "ROAD_RANK": "104", "LANES": 3, "MAX_SPD": 60, "LENGTH": 345.061654652265, "count": 4}, "geometry": {"type": "MultiLineString", "coordinates": [[[128.8062714288108, 35.06101275590162], [128.8065609226191, 35.06101367197011], [128.80713653178051, 35.061007469086526], [128.8076917953482, 35.061100665881895], [128.80999658821617, 35.06147615130644]]]}}, {"type": "Feature", "properties": {"LINK_ID": "4180059600", "ROAD_NAME": "신항로", "ROAD_RANK": "107", "LANES": 3, "MAX_SPD": 60, "LENGTH": 426.112355487213, "count": 14}, "geometry": {"type": "MultiLineString", "coordinates": [[[128.7776021631968, 35.08306001257276], [128.77760287145716, 35.083060002865814], [128.7798221096162, 35.083068192609225], [128.7822731089775, 35.08307505535483]]]}}, {"type": "Feature", "properties": {"LINK_ID": "4180070500", "ROAD_NAME": "신항4로", "ROAD_RANK": "107", "LANES": 1, "MAX_SPD": 30, "LENGTH": 412.124616850016, "count": 1}, "geometry": {"type": "MultiLineString", "coordinates": [[[128.8197357242619, 35.086897072565904], [128.82425351156039, 35.08690253011592]]]}}, {"type": "Feature", "properties": {"LINK_ID": "1410705702", "ROAD_NAME": "신항로", "ROAD_RANK": "104", "LANES": 3, "MAX_SPD": 60, "LENGTH": 11.999970416213, "count": 1}, "geometry": {"type": "MultiLineString", "coordinates": [[[128.83479946289725, 35.08324792923161], [128.83466792332686, 35.083247948436544]]]}}, {"type": "Feature", "properties": {"LINK_ID": "1410035401", "ROAD_NAME": "가락대로", "ROAD_RANK": "105", "LANES": 3, "MAX_SPD": 60, "LENGTH": 13.317788150651, "count": 1}, "geometry": {"type": "MultiLineString", "coordinates": [[[128.83951514817687, 35.088899028406374], [128.8395147748611, 35.089019028987906]]]}}, {"type": "Feature", "properties": {"LINK_ID": "1410735801", "ROAD_NAME": "만금로", "ROAD_RANK": "104", "LANES": 2, "MAX_SPD": 40, "LENGTH": 122.752424824415, "count": 1}, "geometry": {"type": "MultiLineString", "coordinates": [[[128.82220420077869, 35.09802417929194], [128.82255836870124, 35.098814154205805], [128.82260389374522, 35.09891569721386], [128.82266950592975, 35.09906204416048]]]}}, {"type": "Feature", "properties": {"LINK_ID": "1410705300", "ROAD_NAME": "신항북로", "ROAD_RANK": "104", "LANES": 4, "MAX_SPD": 50, "LENGTH": 328.068117798624, "count": 3}, "geometry": {"type": "MultiLineString", "coordinates": [[[128.8243847059261, 35.08601906156046], [128.8279810078539, 35.08602210704067]]]}}, {"type": "Feature", "properties": {"LINK_ID": "4180062401", "ROAD_NAME": "신항로", "ROAD_RANK": "107", "LANES": 3, "MAX_SPD": 60, "LENGTH": 12.013618643252, "count": 3}, "geometry": {"type": "MultiLineString", "coordinates": [[[128.8123617471838, 35.083227587749434], [128.8122300569758, 35.083227500321534]]]}}, {"type": "Feature", "properties": {"LINK_ID": "4180081100", "ROAD_NAME": "신항배후로", "ROAD_RANK": "107", "LANES": 4, "MAX_SPD": 80, "LENGTH": 298.025405414698, "count": 2}, "geometry": {"type": "MultiLineString", "coordinates": [[[128.7652208960544, 35.09138849534354], [128.76520925267343, 35.092634211120014], [128.76519568337304, 35.094073868748254]]]}}, {"type": "Feature", "properties": {"LINK_ID": "4180070600", "ROAD_NAME": "신항4로", "ROAD_RANK": "107", "LANES": 1, "MAX_SPD": 30, "LENGTH": 412.16226262418, "count": 1}, "geometry": {"type": "MultiLineString", "coordinates": [[[128.82425373389952, 35.08701065844507], [128.81973552795475, 35.087005200028585]]]}}, {"type": "Feature", "properties": {"LINK_ID": "1410705802", "ROAD_NAME": "신항로", "ROAD_RANK": "104", "LANES": 3, "MAX_SPD": 60, "LENGTH": 462.646195301523, "count": 5}, "geometry": {"type": "MultiLineString", "coordinates": [[[128.82959674645764, 35.08315709043101], [128.83079339608486, 35.083160194377676], [128.8346680296262, 35.083139818736214]]]}}, {"type": "Feature", "properties": {"LINK_ID": "1410122500", "ROAD_NAME": "신항남로", "ROAD_RANK": "104", "LANES": 2, "MAX_SPD": 80, "LENGTH": 485.332631398824, "count": 1}, "geometry": {"type": "MultiLineString", "coordinates": [[[128.83446633812147, 35.09789337947665], [128.834434165565, 35.09731739596859], [128.8344489103707, 35.09352087398604]]]}}, {"type": "Feature", "properties": {"LINK_ID": "1411030700", "ROAD_NAME": "신항남로", "ROAD_RANK": "104", "LANES": 3, "MAX_SPD": 30, "LENGTH": 80.357703542386, "count": 4}, "geometry": {"type": "MultiLineString", "coordinates": [[[128.8346900911283, 35.06991489334677], [128.8344262279997, 35.06993756003768], [128.83381101424038, 35.06995037320042]]]}}, {"type": "Feature", "properties": {"LINK_ID": "1410123006", "ROAD_NAME": "신항남로", "ROAD_RANK": "104", "LANES": 3, "MAX_SPD": 60, "LENGTH": 321.590024266225, "count": 1}, "geometry": {"type": "MultiLineString", "coordinates": [[[128.83467442568158, 35.08024312748307], [128.8346752862975, 35.079853511162796], [128.83470349893128, 35.07814154900025], [128.83471797136752, 35.07734565213906]]]}}, {"type": "Feature", "properties": {"LINK_ID": "1411030900", "ROAD_NAME": "신항남로", "ROAD_RANK": "104", "LANES": 3, "MAX_SPD": 60, "LENGTH": 429.130795292533, "count": 2}, "geometry": {"type": "MultiLineString", "coordinates": [[[128.83466188986029, 35.06980860029002], [128.83434118343388, 35.068870424888445], [128.83426258145224, 35.068711209446384], [128.83396452044894, 35.068365632107195], [128.83376081939323, 35.06817633599969], [128.83340371581448, 35.067946424379684], [128.83290784884372, 35.06770430077093], [128.832466639379, 35.06755802334474], [128.8319892641533, 35.067461907136085], [128.83151957936678, 35.06735123160108]]]}}, {"type": "Feature", "properties": {"LINK_ID": "4180067600", "ROAD_NAME": "신항북로", "ROAD_RANK": "107", "LANES": 4, "MAX_SPD": 70, "LENGTH": 268.913640031121, "count": 1}, "geometry": {"type": "MultiLineString", "coordinates": [[[128.82425302275527, 35.08612682227065], [128.8228108849037, 35.086119989481666], [128.82130519101105, 35.086120818266565]]]}}, {"type": "Feature", "properties": {"LINK_ID": "4180072900", "ROAD_NAME": "신항4로", "ROAD_RANK": "107", "LANES": 1, "MAX_SPD": 30, "LENGTH": 117.017538477845, "count": 1}, "geometry": {"type": "MultiLineString", "coordinates": [[[128.81694460218603, 35.08796729313048], [128.8182272412012, 35.087983391531495]]]}}, {"type": "Feature", "properties": {"LINK_ID": "4180059101", "ROAD_NAME": "신항로", "ROAD_RANK": "107", "LANES": 2, "MAX_SPD": 60, "LENGTH": 12.000424109983, "count": 1}, "geometry": {"type": "MultiLineString", "coordinates": [[[128.77002215879602, 35.08318376701157], [128.76989061133395, 35.0831839176528]]]}}, {"type": "Feature", "properties": {"LINK_ID": "4180059802", "ROAD_NAME": "신항로", "ROAD_RANK": "107", "LANES": 4, "MAX_SPD": 60, "LENGTH": 407.4410673003, "count": 2}, "geometry": {"type": "MultiLineString", "coordinates": [[[128.76525067832335, 35.0831948815964], [128.76525037220844, 35.08333345926722], [128.7652263802293, 35.0868662089564]]]}}, {"type": "Feature", "properties": {"LINK_ID": "1411031800", "ROAD_NAME": "신항남로", "ROAD_RANK": "104", "LANES": 3, "MAX_SPD": 60, "LENGTH": 433.660940384691, "count": 4}, "geometry": {"type": "MultiLineString", "coordinates": [[[128.8229621702806, 35.064148254245985], [128.82357711057082, 35.06458769548903], [128.82400179406702, 35.06494035112675], [128.82454183985504, 35.065384271398024], [128.82521568149497, 35.065785745734615], [128.82590390175514, 35.06609730337317], [128.8267864119753, 35.066392657396456]]]}}, {"type": "Feature", "properties": {"LINK_ID": "1410702400", "ROAD_NAME": "신항로", "ROAD_RANK": "104", "LANES": 3, "MAX_SPD": 60, "LENGTH": 276.076633212852, "count": 3}, "geometry": {"type": "MultiLineString", "coordinates": [[[128.81834057821555, 35.08313050841346], [128.82136684581573, 35.083133790157746]]]}}, {"type": "Feature", "properties": {"LINK_ID": "1411032700", "ROAD_NAME": "신항남로", "ROAD_RANK": "104", "LANES": 3, "MAX_SPD": 10, "LENGTH": 50.957078585634, "count": 1}, "geometry": {"type": "MultiLineString", "coordinates": [[[128.8347424523801, 35.0742656047645], [128.83418395535847, 35.07426214712912]]]}}, {"type": "Feature", "properties": {"LINK_ID": "1411038800", "ROAD_NAME": "녹산산단46로", "ROAD_RANK": "104", "LANES": 1, "MAX_SPD": 60, "LENGTH": 409.114761308117, "count": 1}, "geometry": {"type": "MultiLineString", "coordinates": [[[128.82655995647463, 35.093130251972354], [128.82976538821373, 35.090551853885316]]]}}, {"type": "Feature", "properties": {"LINK_ID": "4180067502", "ROAD_NAME": "신항북로", "ROAD_RANK": "107", "LANES": 4, "MAX_SPD": 70, "LENGTH": 268.991019619605, "count": 3}, "geometry": {"type": "MultiLineString", "coordinates": [[[128.82130510392193, 35.08601269092596], [128.82281122061408, 35.086011862107796], [128.82425378000767, 35.08601869680255]]]}}, {"type": "Feature", "properties": {"LINK_ID": "1411101802", "ROAD_NAME": "신항남로", "ROAD_RANK": "104", "LANES": 3, "MAX_SPD": 60, "LENGTH": 268.379359866636, "count": 2}, "geometry": {"type": "MultiLineString", "coordinates": [[[128.80535097384958, 35.06117899613183], [128.80498404436972, 35.061152372196304], [128.80247587740126, 35.060681326141065]]]}}, {"type": "Feature", "properties": {"LINK_ID": "4180089100", "ROAD_NAME": "남해고속도로제3지선", "ROAD_RANK": "101", "LANES": 4, "MAX_SPD": 100, "LENGTH": 468.892346519037, "count": 1}, "geometry": {"type": "MultiLineString", "coordinates": [[[128.76519877103965, 35.09418197963421], [128.76521540644532, 35.0944441420599], [128.76521515039352, 35.095099691016514], [128.76521338153447, 35.095409436515865], [128.76522114990408, 35.095697392128216], [128.76522678329283, 35.09582070374447], [128.7653217832319, 35.09790807184498], [128.7653447178033, 35.098404747171784]]]}}, {"type": "Feature", "properties": {"LINK_ID": "4180060501", "ROAD_NAME": "신항로", "ROAD_RANK": "107", "LANES": 3, "MAX_SPD": 60, "LENGTH": 12.001268801909, "count": 1}, "geometry": {"type": "MultiLineString", "coordinates": [[[128.78734428679763, 35.08317404381412], [128.78721273148213, 35.08317369430533]]]}}, {"type": "Feature", "properties": {"LINK_ID": "4180059000", "ROAD_NAME": "신항로", "ROAD_RANK": "107", "LANES": 2, "MAX_SPD": 60, "LENGTH": 390.057702907494, "count": 24}, "geometry": {"type": "MultiLineString", "coordinates": [[[128.77002217710802, 35.08307563721698], [128.77393726600343, 35.08307602206527], [128.7742966452159, 35.08310118119532]]]}}, {"type": "Feature", "properties": {"LINK_ID": "4180060401", "ROAD_NAME": "신항로", "ROAD_RANK": "107", "LANES": 3, "MAX_SPD": 60, "LENGTH": 12.002308568843, "count": 2}, "geometry": {"type": "MultiLineString", "coordinates": [[[128.79624055996726, 35.08310380951644], [128.7963721268092, 35.083103851313574]]]}}, {"type": "Feature", "properties": {"LINK_ID": "4180059202", "ROAD_NAME": "신항7로", "ROAD_RANK": "107", "LANES": 2, "MAX_SPD": 50, "LENGTH": 11.999997517195, "count": 1}, "geometry": {"type": "MultiLineString", "coordinates": [[[128.77002217710802, 35.08307563721698], [128.77002215879602, 35.08318376701157]]]}}, {"type": "Feature", "properties": {"LINK_ID": "1411101708", "ROAD_NAME": "신항남로", "ROAD_RANK": "104", "LANES": 3, "MAX_SPD": 60, "LENGTH": 277.420722515678, "count": 4}, "geometry": {"type": "MultiLineString", "coordinates": [[[128.80999658821617, 35.06147615130644], [128.81039094634838, 35.061540393406894], [128.8106476282075, 35.06158230713624], [128.81297861251025, 35.061962907867745]]]}}, {"type": "Feature", "properties": {"LINK_ID": "4180065100", "ROAD_NAME": "안골로", "ROAD_RANK": "107", "LANES": 1, "MAX_SPD": 30, "LENGTH": 217.906064028306, "count": 12}, "geometry": {"type": "MultiLineString", "coordinates": [[[128.78445369646312, 35.086246182169845], [128.78581156133862, 35.0878616053083]]]}}, {"type": "Feature", "properties": {"LINK_ID": "4180060101", "ROAD_NAME": "신항6로", "ROAD_RANK": "107", "LANES": 3, "MAX_SPD": 60, "LENGTH": 11.999936079981, "count": 3}, "geometry": {"type": "MultiLineString", "coordinates": [[[128.77428548300477, 35.08320892026618], [128.7742966452159, 35.08310118119532]]]}}, {"type": "Feature", "properties": {"LINK_ID": "4180060801", "ROAD_NAME": "안골로108번길", "ROAD_RANK": "107", "LANES": 2, "MAX_SPD": 50, "LENGTH": 12.395504787006, "count": 1}, "geometry": {"type": "MultiLineString", "coordinates": [[[128.78411198192958, 35.0854346348918], [128.78420313437334, 35.08551746840068]]]}}, {"type": "Feature", "properties": {"LINK_ID": "4180079100", "ROAD_NAME": "신항동로", "ROAD_RANK": "107", "LANES": 3, "MAX_SPD": 50, "LENGTH": 135.275752810624, "count": 1}, "geometry": {"type": "MultiLineString", "coordinates": [[[128.82187496652583, 35.09000480153347], [128.82291991218884, 35.090869724227424]]]}}, {"type": "Feature", "properties": {"LINK_ID": "4180088600", "ROAD_NAME": "신항북로", "ROAD_RANK": "107", "LANES": 4, "MAX_SPD": 80, "LENGTH": 420.868838775524, "count": 2}, "geometry": {"type": "MultiLineString", "coordinates": [[[128.76981271627062, 35.094146257695705], [128.76519877103965, 35.09418197963421]]]}}, {"type": "Feature", "properties": {"LINK_ID": "4180060100", "ROAD_NAME": "신항6로", "ROAD_RANK": "107", "LANES": 3, "MAX_SPD": 60, "LENGTH": 410.353938864127, "count": 6}, "geometry": {"type": "MultiLineString", "coordinates": [[[128.77426800304443, 35.0869063552878], [128.7742788339286, 35.08428884458788], [128.7742776782563, 35.08333187607916], [128.77428548300477, 35.08320892026618]]]}}, {"type": "Feature", "properties": {"LINK_ID": "1410705800", "ROAD_NAME": "신항로", "ROAD_RANK": "104", "LANES": 3, "MAX_SPD": 60, "LENGTH": 462.646195301542, "count": 4}, "geometry": {"type": "MultiLineString", "coordinates": [[[128.82452543455466, 35.08313746048331], [128.8264463951259, 35.08314886233744], [128.82959674645764, 35.08315709043101]]]}}, {"type": "Feature", "properties": {"LINK_ID": "1411031000", "ROAD_NAME": "-", "ROAD_RANK": "104", "LANES": 1, "MAX_SPD": 30, "LENGTH": 25.18713842134, "count": 1}, "geometry": {"type": "MultiLineString", "coordinates": [[[128.83163901460443, 35.0670308978495], [128.83159744494952, 35.067141827919606], [128.83155581346455, 35.06724728876483]]]}}, {"type": "Feature", "properties": {"LINK_ID": "1411038802", "ROAD_NAME": "녹산산단46로", "ROAD_RANK": "104", "LANES": 1, "MAX_SPD": 60, "LENGTH": 409.114761308203, "count": 1}, "geometry": {"type": "MultiLineString", "coordinates": [[[128.82976538821373, 35.090551853885316], [128.83214317308534, 35.08863904524578], [128.83223461369974, 35.08859027830108], [128.83236802716394, 35.088615691004236], [128.83300607882717, 35.08915115849637]]]}}, {"type": "Feature", "properties": {"LINK_ID": "4180059900", "ROAD_NAME": "신항로", "ROAD_RANK": "107", "LANES": 4, "MAX_SPD": 60, "LENGTH": 427.281617442364, "count": 7}, "geometry": {"type": "MultiLineString", "coordinates": [[[128.76509483324892, 35.08686560532296], [128.7651188302458, 35.08333305933337], [128.76511937309718, 35.08308705853056], [128.76520642791775, 35.08308685456833]]]}}, {"type": "Feature", "properties": {"LINK_ID": "4180062400", "ROAD_NAME": "신항로", "ROAD_RANK": "107", "LANES": 3, "MAX_SPD": 60, "LENGTH": 266.6791343483, "count": 17}, "geometry": {"type": "MultiLineString", "coordinates": [[[128.8182088615701, 35.08323831657711], [128.81537109566463, 35.083227555639176], [128.8152856271533, 35.083227557582184]]]}}, {"type": "Feature", "properties": {"LINK_ID": "4180059100", "ROAD_NAME": "신항로", "ROAD_RANK": "107", "LANES": 2, "MAX_SPD": 60, "LENGTH": 389.038738683566, "count": 19}, "geometry": {"type": "MultiLineString", "coordinates": [[[128.77428548300477, 35.08320892026618], [128.77393166883328, 35.08318415162705], [128.77002215879602, 35.08318376701157]]]}}, {"type": "Feature", "properties": {"LINK_ID": "1411031802", "ROAD_NAME": "신항남로", "ROAD_RANK": "104", "LANES": 3, "MAX_SPD": 60, "LENGTH": 433.660940384676, "count": 3}, "geometry": {"type": "MultiLineString", "coordinates": [[[128.8267864119753, 35.066392657396456], [128.82681812390493, 35.06640327042187], [128.827392628079, 35.066549028001695], [128.827822060515, 35.066616793957586], [128.83142783760567, 35.067221217845585]]]}}, {"type": "Feature", "properties": {"LINK_ID": "4180080500", "ROAD_NAME": "신항10로", "ROAD_RANK": "107", "LANES": 4, "MAX_SPD": 80, "LENGTH": 420.444182743427, "count": 1}, "geometry": {"type": "MultiLineString", "coordinates": [[[128.76522146083465, 35.0912803628712], [128.76657037059817, 35.091293541369396], [128.76684115181777, 35.091292295843125], [128.76705351543026, 35.09129131910867], [128.76714910815568, 35.09129087961783], [128.7672806625819, 35.09129027450552], [128.7674310276785, 35.09128958250939], [128.76857987018505, 35.091284288170776], [128.76939183433535, 35.09128214421315], [128.76983065974773, 35.0912809823106]]]}}, {"type": "Feature", "properties": {"LINK_ID": "1411030600", "ROAD_NAME": "신항남로", "ROAD_RANK": "104", "LANES": 3, "MAX_SPD": 30, "LENGTH": 95.174426253113, "count": 2}, "geometry": {"type": "MultiLineString", "coordinates": [[[128.83362037597448, 35.06984618095386], [128.83380768402893, 35.06984228053135], [128.83441771513472, 35.06982957549832], [128.83466188986029, 35.06980860029002]]]}}, {"type": "Feature", "properties": {"LINK_ID": "1410706000", "ROAD_NAME": "신항북로", "ROAD_RANK": "104", "LANES": 4, "MAX_SPD": 50, "LENGTH": 279.988089424801, "count": 2}, "geometry": {"type": "MultiLineString", "coordinates": [[[128.83125931143152, 35.087159920137374], [128.83135762258252, 35.08724290291437], [128.83276992567903, 35.08843499718049], [128.83283656443942, 35.08849003604288], [128.8333638902596, 35.088994960540504]]]}}, {"type": "Feature", "properties": {"LINK_ID": "1410705801", "ROAD_NAME": "신항로", "ROAD_RANK": "104", "LANES": 3, "MAX_SPD": 60, "LENGTH": 12.000024017887, "count": 4}, "geometry": {"type": "MultiLineString", "coordinates": [[[128.8346680296262, 35.083139818736214], [128.83479956939635, 35.08314001484229]]]}}, {"type": "Feature", "properties": {"LINK_ID": "1411032701", "ROAD_NAME": "신항남로", "ROAD_RANK": "104", "LANES": 3, "MAX_SPD": 10, "LENGTH": 11.999990872298, "count": 1}, "geometry": {"type": "MultiLineString", "coordinates": [[[128.8348739777396, 35.07426564168189], [128.8347424523801, 35.0742656047645]]]}}, {"type": "Feature", "properties": {"LINK_ID": "4180061500", "ROAD_NAME": "신항로", "ROAD_RANK": "107", "LANES": 3, "MAX_SPD": 60, "LENGTH": 275.221476583369, "count": 5}, "geometry": {"type": "MultiLineString", "coordinates": [[[128.8011407758381, 35.08310312040779], [128.8041576851636, 35.08310773086275]]]}}, {"type": "Feature", "properties": {"LINK_ID": "4180059700", "ROAD_NAME": "신항로", "ROAD_RANK": "107", "LANES": 3, "MAX_SPD": 60, "LENGTH": 425.868588496548, "count": 23}, "geometry": {"type": "MultiLineString", "coordinates": [[[128.78694066686563, 35.08317627695408], [128.78643208179696, 35.08318985748685], [128.78589897128464, 35.08319324658283], [128.78227266253595, 35.08318318380333]]]}}, {"type": "Feature", "properties": {"LINK_ID": "4180065800", "ROAD_NAME": "신항북로", "ROAD_RANK": "107", "LANES": 4, "MAX_SPD": 70, "LENGTH": 496.328598735898, "count": 1}, "geometry": {"type": "MultiLineString", "coordinates": [[[128.8127186697229, 35.08611086589848], [128.8107459050121, 35.086092735545066], [128.8072781876219, 35.086060788194644]]]}}, {"type": "Feature", "properties": {"LINK_ID": "4180076701", "ROAD_NAME": "신항동로", "ROAD_RANK": "107", "LANES": 3, "MAX_SPD": 50, "LENGTH": 12.001917141678, "count": 1}, "geometry": {"type": "MultiLineString", "coordinates": [[[128.81821577763898, 35.08884834023003], [128.8183473456639, 35.08884764799134]]]}}, {"type": "Feature", "properties": {"LINK_ID": "1410704501", "ROAD_NAME": "신항로", "ROAD_RANK": "104", "LANES": 3, "MAX_SPD": 30, "LENGTH": 12.000013603905, "count": 1}, "geometry": {"type": "MultiLineString", "coordinates": [[[128.82439294270378, 35.08324512401012], [128.82439311023774, 35.08313699632329]]]}}, {"type": "Feature", "properties": {"LINK_ID": "1411101703", "ROAD_NAME": "신항남로", "ROAD_RANK": "104", "LANES": 3, "MAX_SPD": 60, "LENGTH": 268.210368098395, "count": 4}, "geometry": {"type": "MultiLineString", "coordinates": [[[128.81297861251025, 35.061962907867745], [128.81334302081328, 35.062022403678604], [128.81585619355994, 35.06245548245641]]]}}, {"type": "Feature", "properties": {"LINK_ID": "4180065900", "ROAD_NAME": "신항북로", "ROAD_RANK": "107", "LANES": 4, "MAX_SPD": 70, "LENGTH": 302.503885554954, "count": 1}, "geometry": {"type": "MultiLineString", "coordinates": [[[128.80083975087064, 35.08605782815188], [128.79869889045125, 35.086080753122054], [128.7984126242889, 35.086099370222286], [128.79813527258725, 35.086131162718736], [128.7979172461119, 35.086171216699306], [128.79754437842377, 35.08624823229415]]]}}, {"type": "Feature", "properties": {"LINK_ID": "4180064300", "ROAD_NAME": "안골로108번길", "ROAD_RANK": "107", "LANES": 2, "MAX_SPD": 50, "LENGTH": 159.275922792908, "count": 12}, "geometry": {"type": "MultiLineString", "coordinates": [[[128.78420313437334, 35.08551746840068], [128.7843675876976, 35.085672004012466], [128.78452062623305, 35.08580573746961], [128.78464107920726, 35.08592014700415], [128.7847558586728, 35.086027764524474], [128.78486344545743, 35.086136562086224], [128.78498445281494, 35.086270780946776], [128.78520387150533, 35.08645544909731], [128.78530316418497, 35.08656440353268], [128.78534219001918, 35.08660319174967]]]}}, {"type": "Feature", "properties": {"LINK_ID": "1410705103", "ROAD_NAME": "신항로", "ROAD_RANK": "104", "LANES": 2, "MAX_SPD": 30, "LENGTH": 321.94155895266, "count": 1}, "geometry": {"type": "MultiLineString", "coordinates": [[[128.82805703384713, 35.084661011475916], [128.82553725725148, 35.08464156258731], [128.82452839522855, 35.084620190296626]]]}}, {"type": "Feature", "properties": {"LINK_ID": "4180073800", "ROAD_NAME": "신항4로", "ROAD_RANK": "107", "LANES": 3, "MAX_SPD": 50, "LENGTH": 83.99720816073, "count": 1}, "geometry": {"type": "MultiLineString", "coordinates": [[[128.81821577763898, 35.08884834023003], [128.8182262970021, 35.08809152009634]]]}}, {"type": "Feature", "properties": {"LINK_ID": "1411031900", "ROAD_NAME": "신항남로", "ROAD_RANK": "104", "LANES": 3, "MAX_SPD": 60, "LENGTH": 435.88791333834, "count": 2}, "geometry": {"type": "MultiLineString", "coordinates": [[[128.83140156696624, 35.067327166764834], [128.8277965271887, 35.066722866301056], [128.8273607482906, 35.06665409822723], [128.82677385839398, 35.066505198916154], [128.82673682954615, 35.06649280648944]]]}}, {"type": "Feature", "properties": {"LINK_ID": "4180064401", "ROAD_NAME": "안골로108번길", "ROAD_RANK": "107", "LANES": 2, "MAX_SPD": 50, "LENGTH": 12.000833015807, "count": 2}, "geometry": {"type": "MultiLineString", "coordinates": [[[128.78410412308912, 35.08558865984196], [128.78401587224226, 35.08550846419442]]]}}, {"type": "Feature", "properties": {"LINK_ID": "4180060903", "ROAD_NAME": "안골로108번길", "ROAD_RANK": "107", "LANES": 2, "MAX_SPD": 50, "LENGTH": 41.086573818423, "count": 12}, "geometry": {"type": "MultiLineString", "coordinates": [[[128.78370904009162, 35.08274005095827], [128.7837714492383, 35.08271844684294], [128.78409591266262, 35.08271987723907], [128.78415397168516, 35.082723171038275]]]}}, {"type": "Feature", "properties": {"LINK_ID": "4180060901", "ROAD_NAME": "안골로108번길", "ROAD_RANK": "107", "LANES": 2, "MAX_SPD": 50, "LENGTH": 13.468654662351, "count": 1}, "geometry": {"type": "MultiLineString", "coordinates": [[[128.78727966914164, 35.083064921981126], [128.78734428679763, 35.08317404381412]]]}}, {"type": "Feature", "properties": {"LINK_ID": "1410122701", "ROAD_NAME": "신항남로", "ROAD_RANK": "104", "LANES": 3, "MAX_SPD": 60, "LENGTH": 321.47630398223, "count": 17}, "geometry": {"type": "MultiLineString", "coordinates": [[[128.83484949223097, 35.077346873126366], [128.8348350172509, 35.07814308957578], [128.83480681886758, 35.07985434135367], [128.83480596033854, 35.0802433237378]]]}}, {"type": "Feature", "properties": {"LINK_ID": "1410119900", "ROAD_NAME": "녹산산업대로", "ROAD_RANK": "104", "LANES": 3, "MAX_SPD": 70, "LENGTH": 80.320739234623, "count": 1}, "geometry": {"type": "MultiLineString", "coordinates": [[[128.83460837029426, 35.08889627873938], [128.83548887934703, 35.08889600955754]]]}}, {"type": "Feature", "properties": {"LINK_ID": "4180060904", "ROAD_NAME": "안골로108번길", "ROAD_RANK": "107", "LANES": 2, "MAX_SPD": 50, "LENGTH": 41.066531379851, "count": 8}, "geometry": {"type": "MultiLineString", "coordinates": [[[128.7868645377368, 35.08292180332289], [128.78727966914164, 35.083064921981126]]]}}, {"type": "Feature", "properties": {"LINK_ID": "4180064100", "ROAD_NAME": "신항4로", "ROAD_RANK": "107", "LANES": 3, "MAX_SPD": 60, "LENGTH": 156.460852713215, "count": 2}, "geometry": {"type": "MultiLineString", "coordinates": [[[128.8183462200525, 35.084592447735275], [128.81835643687046, 35.08600223748689]]]}}, {"type": "Feature", "properties": {"LINK_ID": "4180081200", "ROAD_NAME": "신항배후로", "ROAD_RANK": "107", "LANES": 4, "MAX_SPD": 80, "LENGTH": 298.026168744, "count": 1}, "geometry": {"type": "MultiLineString", "coordinates": [[[128.76506435299876, 35.09407304644774], [128.7650776985385, 35.09263338075935], [128.7650893432843, 35.0913876646322]]]}}, {"type": "Feature", "properties": {"LINK_ID": "4180060802", "ROAD_NAME": "안골로108번길", "ROAD_RANK": "107", "LANES": 2, "MAX_SPD": 50, "LENGTH": 299.022645879996, "count": 7}, "geometry": {"type": "MultiLineString", "coordinates": [[[128.78681446186215, 35.08302085405641], [128.78669524272436, 35.08298026566517], [128.78414470855247, 35.082831276246736], [128.7840881936154, 35.08282797431183], [128.78379767840326, 35.08282669327167], [128.78376009312197, 35.08283970423026], [128.78360305213133, 35.08289406719922], [128.783584847705, 35.082917151624876]]]}}, {"type": "Feature", "properties": {"LINK_ID": "4180061400", "ROAD_NAME": "-", "ROAD_RANK": "107", "LANES": 2, "MAX_SPD": 60, "LENGTH": 344.871596311184, "count": 1}, "geometry": {"type": "MultiLineString", "coordinates": [[[128.79738366193783, 35.086177736106634], [128.79641664680702, 35.08367329526018], [128.79630308110694, 35.0833481796509], [128.79625549532727, 35.08321195023358]]]}}, {"type": "Feature", "properties": {"LINK_ID": "1410705301", "ROAD_NAME": "신항북로", "ROAD_RANK": "104", "LANES": 4, "MAX_SPD": 50, "LENGTH": 11.846910374069, "count": 1}, "geometry": {"type": "MultiLineString", "coordinates": [[[128.8311691030738, 35.08708312769333], [128.83125931143152, 35.087159920137374]]]}}, {"type": "Feature", "properties": {"LINK_ID": "4180089400", "ROAD_NAME": "신항7로", "ROAD_RANK": "107", "LANES": 2, "MAX_SPD": 50, "LENGTH": 305.98391180525, "count": 1}, "geometry": {"type": "MultiLineString", "coordinates": [[[128.76980294745778, 35.09690340623444], [128.76981271627062, 35.094146257695705]]]}}, {"type": "Feature", "properties": {"LINK_ID": "4180093802", "ROAD_NAME": "신항8로", "ROAD_RANK": "107", "LANES": 2, "MAX_SPD": 60, "LENGTH": 398.966620357435, "count": 1}, "geometry": {"type": "MultiLineString", "coordinates": [[[128.77430850217723, 35.097016477484274], [128.76993433375475, 35.09701168273261]]]}}, {"type": "Feature", "properties": {"LINK_ID": "4180060402", "ROAD_NAME": "신항로", "ROAD_RANK": "107", "LANES": 3, "MAX_SPD": 60, "LENGTH": 408.744842248356, "count": 13}, "geometry": {"type": "MultiLineString", "coordinates": [[[128.79175998062172, 35.08310313988482], [128.79384806101268, 35.08310186127779], [128.79624055996726, 35.08310380951644]]]}}, {"type": "Feature", "properties": {"LINK_ID": "4180062001", "ROAD_NAME": "신항로", "ROAD_RANK": "107", "LANES": 3, "MAX_SPD": 60, "LENGTH": 12.004213838358, "count": 1}, "geometry": {"type": "MultiLineString", "coordinates": [[[128.8073059400824, 35.08322058557839], [128.8071743528953, 35.08322039412438]]]}}, {"type": "Feature", "properties": {"LINK_ID": "4180076300", "ROAD_NAME": "신항동로", "ROAD_RANK": "107", "LANES": 3, "MAX_SPD": 30, "LENGTH": 226.202607071987, "count": 1}, "geometry": {"type": "MultiLineString", "coordinates": [[[128.8143192870107, 35.08883904719783], [128.8167990193994, 35.08884496123898]]]}}, {"type": "Feature", "properties": {"LINK_ID": "1410039700", "ROAD_NAME": "녹산산업대로", "ROAD_RANK": "104", "LANES": 3, "MAX_SPD": 70, "LENGTH": 127.474788413335, "count": 1}, "geometry": {"type": "MultiLineString", "coordinates": [[[128.83548887934703, 35.08889600955754], [128.83560906189243, 35.08889603431358], [128.8368863095389, 35.088896949236165]]]}}, {"type": "Feature", "properties": {"LINK_ID": "4180066800", "ROAD_NAME": "신항북로", "ROAD_RANK": "107", "LANES": 4, "MAX_SPD": 70, "LENGTH": 353.662248944305, "count": 1}, "geometry": {"type": "MultiLineString", "coordinates": [[[128.8182256242699, 35.086110055335254], [128.8162849914296, 35.08611198991771], [128.81434874800212, 35.08610707883639]]]}}, {"type": "Feature", "properties": {"LINK_ID": "4180073500", "ROAD_NAME": "신항4로", "ROAD_RANK": "107", "LANES": 1, "MAX_SPD": 30, "LENGTH": 269.291744012964, "count": 1}, "geometry": {"type": "MultiLineString", "coordinates": [[[128.8197206780244, 35.087986880278144], [128.82267274038105, 35.087992378884984]]]}}, {"type": "Feature", "properties": {"LINK_ID": "4180061502", "ROAD_NAME": "신항로", "ROAD_RANK": "107", "LANES": 3, "MAX_SPD": 60, "LENGTH": 275.221473817545, "count": 6}, "geometry": {"type": "MultiLineString", "coordinates": [[[128.8041576851636, 35.08310773086275], [128.80570719774963, 35.08311006963998], [128.80717459143165, 35.08311226590353]]]}}, {"type": "Feature", "properties": {"LINK_ID": "4180059301", "ROAD_NAME": "신항7로", "ROAD_RANK": "107", "LANES": 2, "MAX_SPD": 50, "LENGTH": 11.999962188634, "count": 3}, "geometry": {"type": "MultiLineString", "coordinates": [[[128.76989061133395, 35.0831839176528], [128.76989023016571, 35.08307578862432]]]}}, {"type": "Feature", "properties": {"LINK_ID": "4180061401", "ROAD_NAME": "-", "ROAD_RANK": "107", "LANES": 2, "MAX_SPD": 60, "LENGTH": 12.078417725364, "count": 3}, "geometry": {"type": "MultiLineString", "coordinates": [[[128.79625549532727, 35.08321195023358], [128.79624055996726, 35.08310380951644]]]}}, {"type": "Feature", "properties": {"LINK_ID": "1410122707", "ROAD_NAME": "신항남로", "ROAD_RANK": "104", "LANES": 3, "MAX_SPD": 60, "LENGTH": 321.476303982188, "count": 17}, "geometry": {"type": "MultiLineString", "coordinates": [[[128.83480596033854, 35.0802433237378], [128.83479956939635, 35.08314001484229]]]}}, {"type": "Feature", "properties": {"LINK_ID": "4180064501", "ROAD_NAME": "안골로89번길", "ROAD_RANK": "107", "LANES": 1, "MAX_SPD": 40, "LENGTH": 11.99998970213, "count": 4}, "geometry": {"type": "MultiLineString", "coordinates": [[[128.78420313437334, 35.08551746840068], [128.78410412308912, 35.08558865984196]]]}}, {"type": "Feature", "properties": {"LINK_ID": "1410705700", "ROAD_NAME": "신항로", "ROAD_RANK": "104", "LANES": 3, "MAX_SPD": 60, "LENGTH": 462.673823852781, "count": 18}, "geometry": {"type": "MultiLineString", "coordinates": [[[128.83466792332686, 35.083247948436544], [128.8307936080099, 35.08326832329798], [128.82959633060912, 35.08326521789285]]]}}, {"type": "Feature", "properties": {"LINK_ID": "4180060902", "ROAD_NAME": "안골로108번길", "ROAD_RANK": "107", "LANES": 2, "MAX_SPD": 50, "LENGTH": 249.027722720322, "count": 11}, "geometry": {"type": "MultiLineString", "coordinates": [[[128.78415397168516, 35.082723171038275], [128.78670870282025, 35.08286807794103], [128.7868645377368, 35.08292180332289]]]}}, {"type": "Feature", "properties": {"LINK_ID": "1410122900", "ROAD_NAME": "신항남로", "ROAD_RANK": "104", "LANES": 2, "MAX_SPD": 80, "LENGTH": 431.953364542465, "count": 1}, "geometry": {"type": "MultiLineString", "coordinates": [[[128.8346013420216, 35.09801779540208], [128.8346587189666, 35.09927454564281], [128.83480698717057, 35.10057828715639], [128.83491946764454, 35.10121737569618], [128.83502079066233, 35.10189160546881]]]}}, {"type": "Feature", "properties": {"LINK_ID": "4180061100", "ROAD_NAME": "신항로", "ROAD_RANK": "107", "LANES": 3, "MAX_SPD": 60, "LENGTH": 422.999024347672, "count": 6}, "geometry": {"type": "MultiLineString", "coordinates": [[[128.7963721268092, 35.083103851313574], [128.80100895139805, 35.08310303078041]]]}}, {"type": "Feature", "properties": {"LINK_ID": "4180062402", "ROAD_NAME": "신항로", "ROAD_RANK": "107", "LANES": 3, "MAX_SPD": 60, "LENGTH": 266.734998170394, "count": 18}, "geometry": {"type": "MultiLineString", "coordinates": [[[128.8152856271533, 35.083227557582184], [128.8123617471838, 35.083227587749434]]]}}, {"type": "Feature", "properties": {"LINK_ID": "4180063000", "ROAD_NAME": "안골로108번길", "ROAD_RANK": "107", "LANES": 2, "MAX_SPD": 50, "LENGTH": 287.693931821099, "count": 13}, "geometry": {"type": "MultiLineString", "coordinates": [[[128.78534219001918, 35.08660319174967], [128.78575478405423, 35.086338472877365], [128.78593997124432, 35.08620046071295], [128.78609327785466, 35.08607522145759], [128.78634721384816, 35.08585447755085], [128.78662264936182, 35.085547406457394], [128.78682638457525, 35.08523963331731], [128.78702715435585, 35.08481505035837], [128.78708883037257, 35.08453263581924], [128.78708902403335, 35.08453182974156]]]}}, {"type": "Feature", "properties": {"LINK_ID": "1411030501", "ROAD_NAME": "신항남로", "ROAD_RANK": "104", "LANES": 3, "MAX_SPD": 60, "LENGTH": 12.073794560755, "count": 1}, "geometry": {"type": "MultiLineString", "coordinates": [[[128.8346900911283, 35.06991489334677], [128.83466188986029, 35.06980860029002]]]}}, {"type": "Feature", "properties": {"LINK_ID": "4180061600", "ROAD_NAME": "신항로", "ROAD_RANK": "107", "LANES": 3, "MAX_SPD": 60, "LENGTH": 275.22147669377, "count": 18}, "geometry": {"type": "MultiLineString", "coordinates": [[[128.8071743528953, 35.08322039412438], [128.8057069566019, 35.08321819775631], [128.80415744261157, 35.083215859179525]]]}}, {"type": "Feature", "properties": {"LINK_ID": "1410956900", "ROAD_NAME": "신항남로", "ROAD_RANK": "104", "LANES": 3, "MAX_SPD": 60, "LENGTH": 290.094853912422, "count": 1}, "geometry": {"type": "MultiLineString", "coordinates": [[[128.83471797136752, 35.07734565213906], [128.8347422602312, 35.0747317959879]]]}}, {"type": "Feature", "properties": {"LINK_ID": "4180073000", "ROAD_NAME": "신항4로", "ROAD_RANK": "107", "LANES": 1, "MAX_SPD": 30, "LENGTH": 117.085443773125, "count": 1}, "geometry": {"type": "MultiLineString", "coordinates": [[[128.8182262970021, 35.08809152009634], [128.8169429119726, 35.088075412524084]]]}}, {"type": "Feature", "properties": {"LINK_ID": "4180065002", "ROAD_NAME": "신항북로", "ROAD_RANK": "107", "LANES": 4, "MAX_SPD": 70, "LENGTH": 281.665454765121, "count": 1}, "geometry": {"type": "MultiLineString", "coordinates": [[[128.8040589634246, 35.08605868444896], [128.8009713005598, 35.08605714914235]]]}}, {"type": "Feature", "properties": {"LINK_ID": "4180059901", "ROAD_NAME": "신항로", "ROAD_RANK": "107", "LANES": 4, "MAX_SPD": 60, "LENGTH": 12.036882655022, "count": 6}, "geometry": {"type": "MultiLineString", "coordinates": [[[128.76989023016571, 35.08307578862432], [128.77002217710802, 35.08307563721698]]]}}, {"type": "Feature", "properties": {"LINK_ID": "4180033901", "ROAD_NAME": "-", "ROAD_RANK": "107", "LANES": 2, "MAX_SPD": 60, "LENGTH": 12.279639216464, "count": 4}, "geometry": {"type": "MultiLineString", "coordinates": [[[128.78722360986333, 35.08452974643359], [128.78708902403335, 35.08453182974156]]]}}, {"type": "Feature", "properties": {"LINK_ID": "4180079201", "ROAD_NAME": "신항동로", "ROAD_RANK": "107", "LANES": 3, "MAX_SPD": 50, "LENGTH": 11.999960964074, "count": 1}, "geometry": {"type": "MultiLineString", "coordinates": [[[128.82178089949954, 35.09008039474893], [128.8216892555488, 35.090002822168685]]]}}, {"type": "Feature", "properties": {"LINK_ID": "1410702200", "ROAD_NAME": "신항4로", "ROAD_RANK": "104", "LANES": 2, "MAX_SPD": 30, "LENGTH": 459.762422814866, "count": 1}, "geometry": {"type": "MultiLineString", "coordinates": [[[128.81834558792804, 35.084484311724204], [128.81938739368815, 35.08449149320987], [128.81990241071642, 35.08449503960367], [128.82124277479954, 35.084499665671686], [128.8213734836973, 35.084500115975565], [128.82338536423777, 35.08450702929597]]]}}, {"type": "Feature", "properties": {"LINK_ID": "1411031801", "ROAD_NAME": "신항남로", "ROAD_RANK": "104", "LANES": 3, "MAX_SPD": 60, "LENGTH": 12.030248391404, "count": 1}, "geometry": {"type": "MultiLineString", "coordinates": [[[128.83142783760567, 35.067221217845585], [128.83155581346455, 35.06724728876483]]]}}, {"type": "Feature", "properties": {"LINK_ID": "4180060900", "ROAD_NAME": "안골로108번길", "ROAD_RANK": "107", "LANES": 2, "MAX_SPD": 50, "LENGTH": 341.002362774621, "count": 22}, "geometry": {"type": "MultiLineString", "coordinates": [[[128.78401587224226, 35.08550846419442], [128.78392018471507, 35.08542430091584], [128.7838118612819, 35.085328396269894], [128.78369637737154, 35.0851990507151], [128.78356385040811, 35.08502191708221], [128.7834651117513, 35.084839819760845], [128.78341778494314, 35.08473244603189], [128.78334285702843, 35.08449666491703], [128.78334146983647, 35.08437649661581], [128.7833342363448, 35.08333356786933], [128.78333254993, 35.08310018796998], [128.7833919371179, 35.08296298925026], [128.78351469281304, 35.08280732769639], [128.78370904009162, 35.08274005095827]]]}}, {"type": "Feature", "properties": {"LINK_ID": "4180060600", "ROAD_NAME": "안골로108번길", "ROAD_RANK": "107", "LANES": 2, "MAX_SPD": 60, "LENGTH": 138.894317114108, "count": 9}, "geometry": {"type": "MultiLineString", "coordinates": [[[128.78734428679763, 35.08317404381412], [128.78734074146226, 35.083334432962374], [128.78732477748332, 35.08385384731654], [128.78728806438866, 35.08426145475853], [128.78724968875648, 35.084421194502866]]]}}, {"type": "Feature", "properties": {"LINK_ID": "1411030800", "ROAD_NAME": "신항남로", "ROAD_RANK": "104", "LANES": 3, "MAX_SPD": 60, "LENGTH": 441.373195054867, "count": 6}, "geometry": {"type": "MultiLineString", "coordinates": [[[128.83155581346455, 35.06724728876483], [128.83202303473317, 35.06735738400257], [128.83250707982234, 35.06745484303316], [128.83296635895115, 35.06760711151241], [128.8334781421867, 35.06785700692354], [128.83385135976712, 35.06809729183249], [128.8340677092472, 35.06829834117256], [128.8343786974611, 35.06865890815784], [128.83446580783257, 35.06883535489845], [128.8347885028208, 35.069779344802356]]]}}, {"type": "Feature", "properties": {"LINK_ID": "1410039303", "ROAD_NAME": "녹산산업대로", "ROAD_RANK": "104", "LANES": 3, "MAX_SPD": 70, "LENGTH": 21.86550340608, "count": 1}, "geometry": {"type": "MultiLineString", "coordinates": [[[128.83329067807338, 35.089138806155816], [128.83327829370955, 35.089143307946514], [128.83321550990922, 35.08916779982182], [128.8331620103625, 35.08919208277052], [128.8331085584004, 35.08922329349775], [128.83308448418734, 35.08923798126533]]]}}, {"type": "Feature", "properties": {"LINK_ID": "4180062900", "ROAD_NAME": "안골로108번길", "ROAD_RANK": "107", "LANES": 2, "MAX_SPD": 50, "LENGTH": 298.223466383535, "count": 11}, "geometry": {"type": "MultiLineString", "coordinates": [[[128.78722360986333, 35.08452974643359], [128.78715437893294, 35.0848444634559], [128.78694594855088, 35.085285245426356], [128.78673388370174, 35.085605602709364], [128.78644832060283, 35.08592396598914], [128.78618745629123, 35.086150732308816], [128.78603056257506, 35.08627890212924], [128.78583954946708, 35.08642125672184], [128.785428716357, 35.08668484643499]]]}}, {"type": "Feature", "properties": {"LINK_ID": "1410702300", "ROAD_NAME": "신항로", "ROAD_RANK": "104", "LANES": 3, "MAX_SPD": 60, "LENGTH": 276.076633097002, "count": 17}, "geometry": {"type": "MultiLineString", "coordinates": [[[128.82439294270378, 35.08324512401012], [128.82136667428657, 35.083241917988815]]]}}, {"type": "Feature", "properties": {"LINK_ID": "1410196100", "ROAD_NAME": "거가대로", "ROAD_RANK": "105", "LANES": 2, "MAX_SPD": 80, "LENGTH": 512.518698988181, "count": 3}, "geometry": {"type": "MultiLineString", "coordinates": [[[128.83319321580313, 35.064225796070716], [128.83403977663113, 35.06531757053192], [128.83528445466192, 35.06695860137802], [128.83569754516122, 35.06768590555572], [128.83595797420892, 35.06823211026863]]]}}, {"type": "Feature", "properties": {"LINK_ID": "4180062800", "ROAD_NAME": "신항4로", "ROAD_RANK": "107", "LANES": 3, "MAX_SPD": 60, "LENGTH": 138.253204816828, "count": 1}, "geometry": {"type": "MultiLineString", "coordinates": [[[128.81821404353758, 35.08448406126623], [128.8182089751342, 35.083333383273114], [128.8182088615701, 35.08323831657711]]]}}, {"type": "Feature", "properties": {"LINK_ID": "1410705100", "ROAD_NAME": "신항로", "ROAD_RANK": "104", "LANES": 2, "MAX_SPD": 30, "LENGTH": 402.20206400082, "count": 2}, "geometry": {"type": "MultiLineString", "coordinates": [[[128.83082896519056, 35.08596690202593], [128.83083226671107, 35.08505385365208], [128.83083269714146, 35.085022540494215], [128.83083354007343, 35.084961218521], [128.83083810612203, 35.084629130814626], [128.82819176776164, 35.08466204994282], [128.82805703384713, 35.084661011475916]]]}}, {"type": "Feature", "properties": {"LINK_ID": "4180072200", "ROAD_NAME": "신항4로", "ROAD_RANK": "107", "LANES": 1, "MAX_SPD": 30, "LENGTH": 43.450887462801, "count": 1}, "geometry": {"type": "MultiLineString", "coordinates": [[[128.81681137308843, 35.08807408887383], [128.81633506823027, 35.088070482026104]]]}}, {"type": "Feature", "properties": {"LINK_ID": "4180061201", "ROAD_NAME": "신항로", "ROAD_RANK": "107", "LANES": 3, "MAX_SPD": 60, "LENGTH": 12.485692817066, "count": 2}, "geometry": {"type": "MultiLineString", "coordinates": [[[128.79639236111444, 35.083211976310714], [128.79625549532727, 35.08321195023358]]]}}, {"type": "Feature", "properties": {"LINK_ID": "4180063002", "ROAD_NAME": "안골로108번길", "ROAD_RANK": "107", "LANES": 2, "MAX_SPD": 50, "LENGTH": 11.999964388163, "count": 3}, "geometry": {"type": "MultiLineString", "coordinates": [[[128.78524081855556, 35.08667210326415], [128.78534219001918, 35.08660319174967]]]}}, {"type": "Feature", "properties": {"LINK_ID": "1410040100", "ROAD_NAME": "녹산산업대로", "ROAD_RANK": "104", "LANES": 3, "MAX_SPD": 70, "LENGTH": 217.911721391118, "count": 1}, "geometry": {"type": "MultiLineString", "coordinates": [[[128.8370063144232, 35.08889704033501], [128.8393951488024, 35.08889894380482]]]}}, {"type": "Feature", "properties": {"LINK_ID": "4180093800", "ROAD_NAME": "신항8로", "ROAD_RANK": "107", "LANES": 2, "MAX_SPD": 60, "LENGTH": 398.966620357376, "count": 1}, "geometry": {"type": "MultiLineString", "coordinates": [[[128.7786826641499, 35.097021114316796], [128.77430850217723, 35.097016477484274]]]}}, {"type": "Feature", "properties": {"LINK_ID": "4180069600", "ROAD_NAME": "신항6로", "ROAD_RANK": "107", "LANES": 3, "MAX_SPD": 60, "LENGTH": 227.56753726328, "count": 2}, "geometry": {"type": "MultiLineString", "coordinates": [[[128.77429068629235, 35.08906497152137], [128.7742683611027, 35.08701448868658]]]}}, {"type": "Feature", "properties": {"LINK_ID": "1411030401", "ROAD_NAME": "신항남로", "ROAD_RANK": "104", "LANES": 3, "MAX_SPD": 60, "LENGTH": 12.010484873843, "count": 2}, "geometry": {"type": "MultiLineString", "coordinates": [[[128.83487396683137, 35.074157419827856], [128.8348739777396, 35.07426564168189]]]}}, {"type": "Feature", "properties": {"LINK_ID": "4180062200", "ROAD_NAME": "신항5로", "ROAD_RANK": "107", "LANES": 3, "MAX_SPD": 60, "LENGTH": 140.961796987457, "count": 1}, "geometry": {"type": "MultiLineString", "coordinates": [[[128.80716645032152, 35.08449048612431], [128.80717774962176, 35.08333370816658], [128.8071743528953, 35.08322039412438]]]}}, {"type": "Feature", "properties": {"LINK_ID": "4180065000", "ROAD_NAME": "신항북로", "ROAD_RANK": "107", "LANES": 4, "MAX_SPD": 70, "LENGTH": 281.665454765121, "count": 1}, "geometry": {"type": "MultiLineString", "coordinates": [[[128.80714662287826, 35.0860601410815], [128.8040589634246, 35.08605868444896]]]}}, {"type": "Feature", "properties": {"LINK_ID": "4180061900", "ROAD_NAME": "신항로", "ROAD_RANK": "107", "LANES": 3, "MAX_SPD": 60, "LENGTH": 449.209379255572, "count": 6}, "geometry": {"type": "MultiLineString", "coordinates": [[[128.80730616805283, 35.08311245792876], [128.81223027844328, 35.083119372949675]]]}}, {"type": "Feature", "properties": {"LINK_ID": "4180100300", "ROAD_NAME": "남해고속도로제3지선", "ROAD_RANK": "101", "LANES": 2, "MAX_SPD": 100, "LENGTH": 645.973680101119, "count": 1}, "geometry": {"type": "MultiLineString", "coordinates": [[[128.7653447178033, 35.098404747171784], [128.7653840450615, 35.098845412618935], [128.7654317674907, 35.09934322428398], [128.76549387306662, 35.0998973059902], [128.76556207127655, 35.10046008397208], [128.76562313353102, 35.10092034452758], [128.76569931031133, 35.101394903512514], [128.76577764702125, 35.101879361501716], [128.76586941999406, 35.10240791599063], [128.76596883689072, 35.10292753240709], [128.76607324007762, 35.103418564069166], [128.76616872704602, 35.10381878683112], [128.76626302787383, 35.104171321087236]]]}}, {"type": "Feature", "properties": {"LINK_ID": "4180060002", "ROAD_NAME": "신항6로", "ROAD_RANK": "107", "LANES": 3, "MAX_SPD": 60, "LENGTH": 12.000002866489, "count": 2}, "geometry": {"type": "MultiLineString", "coordinates": [[[128.7744147298505, 35.08310457613809], [128.77441696474386, 35.08321269020167]]]}}, {"type": "Feature", "properties": {"LINK_ID": "1410123002", "ROAD_NAME": "신항남로", "ROAD_RANK": "104", "LANES": 3, "MAX_SPD": 60, "LENGTH": 321.476305417165, "count": 5}, "geometry": {"type": "MultiLineString", "coordinates": [[[128.8346680296262, 35.083139818736214], [128.83467442568158, 35.08024312748307]]]}}, {"type": "Feature", "properties": {"LINK_ID": "4180060701", "ROAD_NAME": "안골로108번길", "ROAD_RANK": "107", "LANES": 2, "MAX_SPD": 60, "LENGTH": 26.436636831259, "count": 10}, "geometry": {"type": "MultiLineString", "coordinates": [[[128.78721273148213, 35.08317369430533], [128.78695301051332, 35.08306802301789]]]}}, {"type": "Feature", "properties": {"LINK_ID": "1410123003", "ROAD_NAME": "신항남로", "ROAD_RANK": "104", "LANES": 2, "MAX_SPD": 80, "LENGTH": 12.00027747536, "count": 2}, "geometry": {"type": "MultiLineString", "coordinates": [[[128.83466792332686, 35.083247948436544], [128.8346680296262, 35.083139818736214]]]}}, {"type": "Feature", "properties": {"LINK_ID": "4180059501", "ROAD_NAME": "신항로", "ROAD_RANK": "107", "LANES": 2, "MAX_SPD": 60, "LENGTH": 12.001726644492, "count": 1}, "geometry": {"type": "MultiLineString", "coordinates": [[[128.77441696474386, 35.08321269020167], [128.77428548300477, 35.08320892026618]]]}}, {"type": "Feature", "properties": {"LINK_ID": "4180078300", "ROAD_NAME": "용원동로", "ROAD_RANK": "107", "LANES": 1, "MAX_SPD": 30, "LENGTH": 304.322029903905, "count": 1}, "geometry": {"type": "MultiLineString", "coordinates": [[[128.80726836363039, 35.08969342658549], [128.807328189492, 35.08968082377971], [128.80755547098457, 35.089654085286334], [128.80778673639912, 35.08964302490299], [128.80805658132965, 35.08961995311338], [128.80836463572078, 35.089611764782994], [128.80858254588244, 35.089631670552606], [128.80879513423363, 35.08968008151099], [128.80906646252672, 35.08978616481109], [128.80938865917258, 35.08991384649025], [128.80964941024288, 35.0900087553447], [128.80993095417924, 35.090117966391325], [128.81030052991977, 35.09025918639432], [128.81041842592165, 35.090307228497075]]]}}, {"type": "Feature", "properties": {"LINK_ID": "4180073801", "ROAD_NAME": "신항4로", "ROAD_RANK": "107", "LANES": 3, "MAX_SPD": 50, "LENGTH": 12.00039192149, "count": 1}, "geometry": {"type": "MultiLineString", "coordinates": [[[128.8182262970021, 35.08809152009634], [128.8182272412012, 35.087983391531495]]]}}, {"type": "Feature", "properties": {"LINK_ID": "1411038602", "ROAD_NAME": "-", "ROAD_RANK": "104", "LANES": 1, "MAX_SPD": 60, "LENGTH": 12.26809396994, "count": 1}, "geometry": {"type": "MultiLineString", "coordinates": [[[128.82729375639957, 35.093769685649136], [128.82738789499817, 35.09384863631183]]]}}, {"type": "Feature", "properties": {"LINK_ID": "4180062000", "ROAD_NAME": "신항로", "ROAD_RANK": "107", "LANES": 3, "MAX_SPD": 60, "LENGTH": 449.209379255574, "count": 17}, "geometry": {"type": "MultiLineString", "coordinates": [[[128.8122300569758, 35.083227500321534], [128.8073059400824, 35.08322058557839]]]}}, {"type": "Feature", "properties": {"LINK_ID": "4180060700", "ROAD_NAME": "안골로108번길", "ROAD_RANK": "107", "LANES": 2, "MAX_SPD": 60, "LENGTH": 139.196963996839, "count": 14}, "geometry": {"type": "MultiLineString", "coordinates": [[[128.78711510348714, 35.08442327765545], [128.78715746865862, 35.08424693549336], [128.7871933571197, 35.08384848672892], [128.78720922979934, 35.083332085605655], [128.78721273148213, 35.08317369430533]]]}}, {"type": "Feature", "properties": {"LINK_ID": "1410705402", "ROAD_NAME": "신항로", "ROAD_RANK": "104", "LANES": 2, "MAX_SPD": 30, "LENGTH": 321.745246318011, "count": 1}, "geometry": {"type": "MultiLineString", "coordinates": [[[128.8280582673095, 35.084552888418216], [128.82819139019966, 35.08455391447256], [128.83097116652823, 35.08451933424854], [128.83096531808823, 35.0849447511591], [128.83096423181541, 35.08502376216851]]]}}, {"type": "Feature", "properties": {"LINK_ID": "4180071000", "ROAD_NAME": "신항4로", "ROAD_RANK": "107", "LANES": 3, "MAX_SPD": 50, "LENGTH": 108.063337136673, "count": 1}, "geometry": {"type": "MultiLineString", "coordinates": [[[128.8182272412012, 35.087983391531495], [128.81823081083735, 35.087009674794466]]]}}, {"type": "Feature", "properties": {"LINK_ID": "4180058600", "ROAD_NAME": "신항남로", "ROAD_RANK": "107", "LANES": 2, "MAX_SPD": 80, "LENGTH": 50.267756014215, "count": 1}, "geometry": {"type": "MultiLineString", "coordinates": [[[128.83502079066233, 35.10189160546881], [128.8351684562523, 35.10232798718038]]]}}, {"type": "Feature", "properties": {"LINK_ID": "1411060800", "ROAD_NAME": "만금로", "ROAD_RANK": "104", "LANES": 2, "MAX_SPD": 40, "LENGTH": 183.787503580665, "count": 1}, "geometry": {"type": "MultiLineString", "coordinates": [[[128.8230926225452, 35.10053066784988], [128.82254501642802, 35.09909692739159], [128.8224804601514, 35.09895307548492]]]}}, {"type": "Feature", "properties": {"LINK_ID": "4180034700", "ROAD_NAME": "신항로", "ROAD_RANK": "107", "LANES": 4, "MAX_SPD": 60, "LENGTH": 203.05972558842, "count": 7}, "geometry": {"type": "MultiLineString", "coordinates": [[[128.79624055996726, 35.08310380951644], [128.79625958591197, 35.08230620137951], [128.79632955052048, 35.082128968155025], [128.79646050204934, 35.08201257193602], [128.7966292264385, 35.081946959185366], [128.79679351574356, 35.08191957948835], [128.79727507399437, 35.08191958256784]]]}}, {"type": "Feature", "properties": {"LINK_ID": "1410704800", "ROAD_NAME": "신항동로", "ROAD_RANK": "104", "LANES": 3, "MAX_SPD": 50, "LENGTH": 272.323443308599, "count": 1}, "geometry": {"type": "MultiLineString", "coordinates": [[[128.82473282956863, 35.09239827539449], [128.8249966567328, 35.09262581226992], [128.82605269348025, 35.093501959490865], [128.8267908853966, 35.09417507320601]]]}}, {"type": "Feature", "properties": {"LINK_ID": "4180060300", "ROAD_NAME": "신항로", "ROAD_RANK": "107", "LANES": 3, "MAX_SPD": 60, "LENGTH": 24.8208972399, "count": 1}, "geometry": {"type": "MultiLineString", "coordinates": [[[128.78721273148213, 35.08317369430533], [128.78694066686563, 35.08317627695408]]]}}, {"type": "Feature", "properties": {"LINK_ID": "1410956800", "ROAD_NAME": "신항남로", "ROAD_RANK": "104", "LANES": 3, "MAX_SPD": 60, "LENGTH": 290.182494592093, "count": 15}, "geometry": {"type": "MultiLineString", "coordinates": [[[128.83487378439702, 35.074732227406315], [128.83484949223097, 35.077346873126366]]]}}, {"type": "Feature", "properties": {"LINK_ID": "4180034001", "ROAD_NAME": "-", "ROAD_RANK": "107", "LANES": 2, "MAX_SPD": 60, "LENGTH": 12.279604150487, "count": 2}, "geometry": {"type": "MultiLineString", "coordinates": [[[128.78711510348714, 35.08442327765545], [128.78724968875648, 35.084421194502866]]]}}, {"type": "Feature", "properties": {"LINK_ID": "4180061300", "ROAD_NAME": "-", "ROAD_RANK": "107", "LANES": 2, "MAX_SPD": 60, "LENGTH": 340.984279716028, "count": 4}, "geometry": {"type": "MultiLineString", "coordinates": [[[128.79639236111444, 35.083211976310714], [128.79642951464282, 35.08331833863357], [128.79654257773655, 35.083642012406166], [128.79750869257848, 35.08614411334973]]]}}, {"type": "Feature", "properties": {"LINK_ID": "4180059701", "ROAD_NAME": "신항로", "ROAD_RANK": "107", "LANES": 3, "MAX_SPD": 60, "LENGTH": 425.868588496503, "count": 23}, "geometry": {"type": "MultiLineString", "coordinates": [[[128.78227266253595, 35.08318318380333], [128.77982159087136, 35.08317632076676], [128.77760438267532, 35.08316812715596]]]}}, {"type": "Feature", "properties": {"LINK_ID": "1410737900", "ROAD_NAME": "녹산산업대로", "ROAD_RANK": "104", "LANES": 2, "MAX_SPD": 70, "LENGTH": 221.483386609621, "count": 2}, "geometry": {"type": "MultiLineString", "coordinates": [[[128.8237248084529, 35.09662875053557], [128.82401202548508, 35.09641346031942], [128.8241041553523, 35.09634177769413], [128.82546926940168, 35.09524077346308]]]}}, {"type": "Feature", "properties": {"LINK_ID": "1411030400", "ROAD_NAME": "신항남로", "ROAD_RANK": "104", "LANES": 3, "MAX_SPD": 60, "LENGTH": 472.731191032658, "count": 14}, "geometry": {"type": "MultiLineString", "coordinates": [[[128.83482030744324, 35.06989971244042], [128.83484829050033, 35.07006195259245], [128.83487189971845, 35.07076124160375], [128.83487396683137, 35.074157419827856]]]}}, {"type": "Feature", "properties": {"LINK_ID": "1410055200", "ROAD_NAME": "녹산산업대로", "ROAD_RANK": "104", "LANES": 3, "MAX_SPD": 70, "LENGTH": 198.692318467864, "count": 1}, "geometry": {"type": "MultiLineString", "coordinates": [[[128.8310748275613, 35.090876543111506], [128.83020141407087, 35.09158025077724], [128.8295193053393, 35.09212981201394]]]}}, {"type": "Feature", "properties": {"LINK_ID": "1411101704", "ROAD_NAME": "신항남로", "ROAD_RANK": "104", "LANES": 3, "MAX_SPD": 60, "LENGTH": 181.568354334441, "count": 4}, "geometry": {"type": "MultiLineString", "coordinates": [[[128.8212029682837, 35.063407202983655], [128.82179551572622, 35.06361987087762], [128.82257927750646, 35.06390116019983], [128.82281100703685, 35.06403187005586], [128.8229621702806, 35.064148254245985]]]}}, {"type": "Feature", "properties": {"LINK_ID": "4180075200", "ROAD_NAME": "신항6로", "ROAD_RANK": "107", "LANES": 3, "MAX_SPD": 60, "LENGTH": 231.376427767193, "count": 1}, "geometry": {"type": "MultiLineString", "coordinates": [[[128.7742705020028, 35.09125791996279], [128.77429074859717, 35.08917310100854]]]}}, {"type": "Feature", "properties": {"LINK_ID": "4180034800", "ROAD_NAME": "신항로", "ROAD_RANK": "107", "LANES": 4, "MAX_SPD": 60, "LENGTH": 184.027383083663, "count": 4}, "geometry": {"type": "MultiLineString", "coordinates": [[[128.79727507382094, 35.08202771179123], [128.7968067149036, 35.08202770865641], [128.7966710285945, 35.082050321500205], [128.79653977869654, 35.08210136050875], [128.79644574724225, 35.08218494065497], [128.79639071972247, 35.082324338403296], [128.7963721268092, 35.083103851313574]]]}}, {"type": "Feature", "properties": {"LINK_ID": "1410737400", "ROAD_NAME": "녹산산업대로", "ROAD_RANK": "104", "LANES": 2, "MAX_SPD": 70, "LENGTH": 56.333011955131, "count": 2}, "geometry": {"type": "MultiLineString", "coordinates": [[[128.82329468843392, 35.096993014222726], [128.8237248084529, 35.09662875053557]]]}}, {"type": "Feature", "properties": {"LINK_ID": "1411060600", "ROAD_NAME": "만금로", "ROAD_RANK": "104", "LANES": 2, "MAX_SPD": 40, "LENGTH": 91.776118927078, "count": 1}, "geometry": {"type": "MultiLineString", "coordinates": [[[128.8224349165418, 35.098851538254365], [128.82208703188851, 35.098075575816885]]]}}, {"type": "Feature", "properties": {"LINK_ID": "4180067500", "ROAD_NAME": "신항북로", "ROAD_RANK": "107", "LANES": 4, "MAX_SPD": 70, "LENGTH": 268.991019619619, "count": 2}, "geometry": {"type": "MultiLineString", "coordinates": [[[128.81835643687046, 35.08600223748689], [128.81933336926545, 35.08600786253323], [128.82026530388723, 35.0860098628057], [128.82099019610345, 35.08601286185417], [128.82130510392193, 35.08601269092596]]]}}, {"type": "Feature", "properties": {"LINK_ID": "4180059001", "ROAD_NAME": "신항로", "ROAD_RANK": "107", "LANES": 2, "MAX_SPD": 60, "LENGTH": 10.778881059649, "count": 3}, "geometry": {"type": "MultiLineString", "coordinates": [[[128.7742966452159, 35.08310118119532], [128.7744147298505, 35.08310457613809]]]}}, {"type": "Feature", "properties": {"LINK_ID": "1410704700", "ROAD_NAME": "신항동로", "ROAD_RANK": "104", "LANES": 3, "MAX_SPD": 50, "LENGTH": 272.368459330651, "count": 1}, "geometry": {"type": "MultiLineString", "coordinates": [[[128.82669686521103, 35.094250644036094], [128.82595892646432, 35.09357780322617], [128.82490230093404, 35.092701166591375], [128.82463842365294, 35.09247358535599]]]}}, {"type": "Feature", "properties": {"LINK_ID": "4180061801", "ROAD_NAME": "신항로", "ROAD_RANK": "107", "LANES": 3, "MAX_SPD": 60, "LENGTH": 11.999993012348, "count": 1}, "geometry": {"type": "MultiLineString", "coordinates": [[[128.80100898278036, 35.08321115930605], [128.80100895139805, 35.08310303078041]]]}}, {"type": "Feature", "properties": {"LINK_ID": "1411032400", "ROAD_NAME": "신항남로", "ROAD_RANK": "104", "LANES": 3, "MAX_SPD": 60, "LENGTH": 51.781790226878, "count": 10}, "geometry": {"type": "MultiLineString", "coordinates": [[[128.8348739777396, 35.07426564168189], [128.83487378439702, 35.074732227406315]]]}}, {"type": "Feature", "properties": {"LINK_ID": "4180073100", "ROAD_NAME": "신항4로", "ROAD_RANK": "107", "LANES": 1, "MAX_SPD": 30, "LENGTH": 112.233187726897, "count": 1}, "geometry": {"type": "MultiLineString", "coordinates": [[[128.8183587866896, 35.087984343334185], [128.8195891238007, 35.08798663521737]]]}}, {"type": "Feature", "properties": {"LINK_ID": "4180059601", "ROAD_NAME": "신항로", "ROAD_RANK": "107", "LANES": 3, "MAX_SPD": 60, "LENGTH": 425.689662090936, "count": 12}, "geometry": {"type": "MultiLineString", "coordinates": [[[128.7822731089775, 35.08307505535483], [128.785898683795, 35.08308511597899], [128.7864294389481, 35.08308174177616], [128.78693846079216, 35.08306816113817], [128.7869391460364, 35.08306815461671]]]}}, {"type": "Feature", "properties": {"LINK_ID": "1411101803", "ROAD_NAME": "신항남로", "ROAD_RANK": "104", "LANES": 3, "MAX_SPD": 60, "LENGTH": 484.806112905037, "count": 2}, "geometry": {"type": "MultiLineString", "coordinates": [[[128.81579408891892, 35.0626996667716], [128.81291784528048, 35.06220558631415], [128.8105934294769, 35.06180624406662]]]}}, {"type": "Feature", "properties": {"LINK_ID": "1411101706", "ROAD_NAME": "신항남로", "ROAD_RANK": "104", "LANES": 3, "MAX_SPD": 60, "LENGTH": 376.540501622675, "count": 4}, "geometry": {"type": "MultiLineString", "coordinates": [[[128.81585619355994, 35.06245548245641], [128.81597666160977, 35.06247624049999], [128.81985247574087, 35.06311487052576], [128.81990137449185, 35.06312538542452]]]}}, {"type": "Feature", "properties": {"LINK_ID": "4180062300", "ROAD_NAME": "신항로", "ROAD_RANK": "107", "LANES": 3, "MAX_SPD": 60, "LENGTH": 266.734995256093, "count": 4}, "geometry": {"type": "MultiLineString", "coordinates": [[[128.81236174750123, 35.08311945901778], [128.81528562357792, 35.083119429604814]]]}}, {"type": "Feature", "properties": {"LINK_ID": "1410736701", "ROAD_NAME": "만금로", "ROAD_RANK": "104", "LANES": 2, "MAX_SPD": 60, "LENGTH": 347.7877989757, "count": 2}, "geometry": {"type": "MultiLineString", "coordinates": [[[128.8225611311562, 35.099403405766644], [128.82253693624665, 35.09933625693272], [128.8224592518325, 35.09900158893281], [128.82242914516473, 35.098789504952755], [128.82244397759038, 35.09851322235998], [128.82250976998145, 35.098117332344195], [128.82260340953002, 35.09783733230354], [128.82270900437024, 35.09757650325442], [128.82279569878258, 35.09744551134427], [128.822878335923, 35.09735294323274], [128.8237248084529, 35.09662875053557]]]}}, {"type": "Feature", "properties": {"LINK_ID": "4180059800", "ROAD_NAME": "신항로", "ROAD_RANK": "107", "LANES": 4, "MAX_SPD": 60, "LENGTH": 423.279075110233, "count": 11}, "geometry": {"type": "MultiLineString", "coordinates": [[[128.76989061133395, 35.0831839176528], [128.76525067832335, 35.0831948815964]]]}}, {"type": "Feature", "properties": {"LINK_ID": "1410702402", "ROAD_NAME": "신항로", "ROAD_RANK": "104", "LANES": 3, "MAX_SPD": 60, "LENGTH": 276.076633212852, "count": 2}, "geometry": {"type": "MultiLineString", "coordinates": [[[128.82136684581573, 35.083133790157746], [128.82439311023774, 35.08313699632329]]]}}, {"type": "Feature", "properties": {"LINK_ID": "1410063505", "ROAD_NAME": "녹산산업대로", "ROAD_RANK": "104", "LANES": 3, "MAX_SPD": 70, "LENGTH": 359.497705782739, "count": 1}, "geometry": {"type": "MultiLineString", "coordinates": [[[128.83010788301686, 35.09150182954285], [128.83098101039695, 35.090797926402], [128.83107369557428, 35.09072221963237], [128.83278046127393, 35.089299147598254], [128.83282950780955, 35.08926425638177], [128.83288221385882, 35.08922910523749], [128.8329006090874, 35.08921717566618]]]}}, {"type": "Feature", "properties": {"LINK_ID": "4180078403", "ROAD_NAME": "용원동로", "ROAD_RANK": "107", "LANES": 1, "MAX_SPD": 30, "LENGTH": 295.773441809074, "count": 1}, "geometry": {"type": "MultiLineString", "coordinates": [[[128.81035999254317, 35.09040410492968], [128.81024357502446, 35.09035666535704], [128.80987515224166, 35.090215884889844], [128.80959469627598, 35.09010709636994], [128.8093334464307, 35.09001200559226], [128.80900964227305, 35.0898836871706], [128.8087489710871, 35.089781770571044], [128.80855755934144, 35.08973818142572], [128.80835946983848, 35.08972008697666], [128.80806552454433, 35.08972789903132], [128.80779736901047, 35.08975082759191], [128.80756863449466, 35.089761766447424], [128.80735391607428, 35.08978702801693], [128.80730102377697, 35.08979817016831]]]}}, {"type": "Feature", "properties": {"LINK_ID": "1411101809", "ROAD_NAME": "신항남로", "ROAD_RANK": "104", "LANES": 3, "MAX_SPD": 60, "LENGTH": 484.806112905072, "count": 2}, "geometry": {"type": "MultiLineString", "coordinates": [[[128.8105934294769, 35.06180624406662], [128.80994170160628, 35.06169426631586], [128.80961942068427, 35.06163889164309], [128.80750272783652, 35.0612785264717], [128.80691521917132, 35.061226251587684], [128.80626393006634, 35.061208688512174], [128.80584009828303, 35.06119725730935], [128.80536280515946, 35.061179854577766], [128.80535097384958, 35.06117899613183]]]}}, {"type": "Feature", "properties": {"LINK_ID": "1410063502", "ROAD_NAME": "녹산산업대로", "ROAD_RANK": "104", "LANES": 3, "MAX_SPD": 70, "LENGTH": 359.497705782733, "count": 1}, "geometry": {"type": "MultiLineString", "coordinates": [[[128.82729375639957, 35.093769685649136], [128.8278566648303, 35.09331585709189], [128.82795209243866, 35.09323928584562], [128.829330086249, 35.092128846047466], [128.82942595045742, 35.09205158154595], [128.83010788301686, 35.09150182954285]]]}}, {"type": "Feature", "properties": {"LINK_ID": "4180062601", "ROAD_NAME": "-", "ROAD_RANK": "107", "LANES": 3, "MAX_SPD": 60, "LENGTH": 11.999931510369, "count": 1}, "geometry": {"type": "MultiLineString", "coordinates": [[[128.8122300569758, 35.083227500321534], [128.81223027844328, 35.083119372949675]]]}}, {"type": "Feature", "properties": {"LINK_ID": "4180083700", "ROAD_NAME": "신항동로", "ROAD_RANK": "107", "LANES": 3, "MAX_SPD": 50, "LENGTH": 212.912023517802, "count": 1}, "geometry": {"type": "MultiLineString", "coordinates": [[[128.82301198525667, 35.090946953905544], [128.82431189602642, 35.09205186869795], [128.8246408277066, 35.092320986634036]]]}}, {"type": "Feature", "properties": {"LINK_ID": "1410737000", "ROAD_NAME": "-", "ROAD_RANK": "104", "LANES": 2, "MAX_SPD": 80, "LENGTH": 388.167608678103, "count": 2}, "geometry": {"type": "MultiLineString", "coordinates": [[[128.82266950592975, 35.09906204416048], [128.82279424145705, 35.09919636663402], [128.8228952753523, 35.09936555218343], [128.82367403725615, 35.1012273059115], [128.82382976101235, 35.101659083926066], [128.82391125014132, 35.10200914121286], [128.82391104901325, 35.102212726297914], [128.82387586820303, 35.10237127788807]]]}}, {"type": "Feature", "properties": {"LINK_ID": "4180071100", "ROAD_NAME": "신항4로", "ROAD_RANK": "107", "LANES": 1, "MAX_SPD": 30, "LENGTH": 108.95511748906, "count": 1}, "geometry": {"type": "MultiLineString", "coordinates": [[[128.81973552795475, 35.087005200028585], [128.8197206780244, 35.087986880278144]]]}}, {"type": "Feature", "properties": {"LINK_ID": "4180060000", "ROAD_NAME": "신항6로", "ROAD_RANK": "107", "LANES": 3, "MAX_SPD": 60, "LENGTH": 409.924706221575, "count": 1}, "geometry": {"type": "MultiLineString", "coordinates": [[[128.77441696474386, 35.08321269020167], [128.77440922413857, 35.083334641631865], [128.77441037906604, 35.08428897404913], [128.77439955239154, 35.086906258708176]]]}}, {"type": "Feature", "properties": {"LINK_ID": "4180059400", "ROAD_NAME": "신항로", "ROAD_RANK": "107", "LANES": 2, "MAX_SPD": 60, "LENGTH": 290.81654636216, "count": 13}, "geometry": {"type": "MultiLineString", "coordinates": [[[128.7744147298505, 35.08310457613809], [128.7776021631968, 35.08306001257276]]]}}, {"type": "Feature", "properties": {"LINK_ID": "4180151400", "ROAD_NAME": "남영로", "ROAD_RANK": "107", "LANES": 1, "MAX_SPD": 60, "LENGTH": 421.751710802485, "count": 1}, "geometry": {"type": "MultiLineString", "coordinates": [[[128.76262780669109, 35.105111759227476], [128.7626783487265, 35.105143215769196], [128.76272000315714, 35.105164042817016], [128.7627580441055, 35.10517672218556], [128.7631362389971, 35.105225523215104], [128.76322922733664, 35.10523327367312], [128.76339372002874, 35.1052254406963], [128.7636597946677, 35.105177067667675], [128.7637345227106, 35.105155717138096], [128.76418739371042, 35.10488645485296], [128.7653007144552, 35.10412759221694], [128.7655966058013, 35.10396464366022], [128.76583004320105, 35.103886835231044], [128.7660256151066, 35.10383468524506], [128.76627610804175, 35.1038083206268], [128.76664646648865, 35.103833863498465], [128.7666814543386, 35.103837114103776]]]}}, {"type": "Feature", "properties": {"LINK_ID": "4180064601", "ROAD_NAME": "안골로89번길", "ROAD_RANK": "107", "LANES": 1, "MAX_SPD": 40, "LENGTH": 12.00000042918, "count": 4}, "geometry": {"type": "MultiLineString", "coordinates": [[[128.78401587224226, 35.08550846419442], [128.78411198192958, 35.0854346348918]]]}}, {"type": "Feature", "properties": {"LINK_ID": "4180062801", "ROAD_NAME": "신항4로", "ROAD_RANK": "107", "LANES": 3, "MAX_SPD": 60, "LENGTH": 12.000081032251, "count": 2}, "geometry": {"type": "MultiLineString", "coordinates": [[[128.8182088615701, 35.08323831657711], [128.81820946646636, 35.083130189088614]]]}}, {"type": "Feature", "properties": {"LINK_ID": "4180064400", "ROAD_NAME": "안골로108번길", "ROAD_RANK": "107", "LANES": 2, "MAX_SPD": 50, "LENGTH": 158.943847127626, "count": 3}, "geometry": {"type": "MultiLineString", "coordinates": [[[128.78524081855556, 35.08667210326415], [128.78519977645917, 35.08663131147391], [128.78510374803304, 35.08652593810323], [128.7848840914881, 35.08634107050001], [128.7847595090338, 35.086202886530806], [128.7846553259428, 35.08609753009951], [128.78454188515062, 35.08599116800618], [128.78442294025413, 35.08587819074615], [128.78427014201324, 35.085744666318085], [128.78410412308912, 35.08558865984196]]]}}, {"type": "Feature", "properties": {"LINK_ID": "1411101701", "ROAD_NAME": "신항남로", "ROAD_RANK": "104", "LANES": 3, "MAX_SPD": 60, "LENGTH": 345.061654652281, "count": 4}, "geometry": {"type": "MultiLineString", "coordinates": [[[128.8025624899439, 35.06046716656972], [128.80501349312217, 35.06093565792795], [128.8053798471828, 35.060983248170146], [128.8055903936917, 35.06101059812084], [128.8062714288108, 35.06101275590162]]]}}, {"type": "Feature", "properties": {"LINK_ID": "1410122800", "ROAD_NAME": "신항남로", "ROAD_RANK": "104", "LANES": 2, "MAX_SPD": 80, "LENGTH": 434.22781222253, "count": 1}, "geometry": {"type": "MultiLineString", "coordinates": [[[128.83492106573794, 35.101906834904625], [128.83475329897485, 35.10103665174221], [128.83467079689865, 35.10056664046775], [128.83452329343783, 35.09930911208381], [128.83447223547148, 35.098016421444726]]]}}, {"type": "Feature", "properties": {"LINK_ID": "1410704600", "ROAD_NAME": "신항로", "ROAD_RANK": "104", "LANES": 3, "MAX_SPD": 30, "LENGTH": 140.55930800797, "count": 2}, "geometry": {"type": "MultiLineString", "coordinates": [[[128.82452448350094, 35.08324558534142], [128.8245245348634, 35.08333310927718], [128.82453178487728, 35.08451209906334]]]}}, {"type": "Feature", "properties": {"LINK_ID": "1410705302", "ROAD_NAME": "신항북로", "ROAD_RANK": "104", "LANES": 4, "MAX_SPD": 50, "LENGTH": 328.068117798648, "count": 2}, "geometry": {"type": "MultiLineString", "coordinates": [[[128.8279810078539, 35.08602210704067], [128.82853197131467, 35.086022564188426], [128.82879008151167, 35.08602886063831], [128.82905583057757, 35.086048917266474], [128.82930083106214, 35.086085490231], [128.82951205466014, 35.086133916034825], [128.8297004453827, 35.08618706869788], [128.82992738287328, 35.08626473798343], [128.8301897232194, 35.08636845543291], [128.8303797298224, 35.08646526894077], [128.83053629980392, 35.08656315031489], [128.83072064504987, 35.08669477160459], [128.8311691030738, 35.08708312769333]]]}}, {"type": "Feature", "properties": {"LINK_ID": "4180060805", "ROAD_NAME": "안골로108번길", "ROAD_RANK": "107", "LANES": 2, "MAX_SPD": 50, "LENGTH": 299.022645880119, "count": 6}, "geometry": {"type": "MultiLineString", "coordinates": [[[128.783584847705, 35.082917151624876], [128.7835107011166, 35.08301117428137], [128.78346422656458, 35.08311854011057], [128.7834657766538, 35.083332951291084], [128.7834730106553, 35.084375675419544], [128.78347424066294, 35.084482270929094], [128.783543527383, 35.08470029707583], [128.78358718206587, 35.08479934071744], [128.78368045865776, 35.08497136424117], [128.7838056105882, 35.08513863965819], [128.78391342351844, 35.08525939399485], [128.78401644117062, 35.08535060015906], [128.78411198192958, 35.0854346348918]]]}}, {"type": "Feature", "properties": {"LINK_ID": "4180063001", "ROAD_NAME": "안골로108번길", "ROAD_RANK": "107", "LANES": 2, "MAX_SPD": 50, "LENGTH": 12.279607327702, "count": 1}, "geometry": {"type": "MultiLineString", "coordinates": [[[128.78708902403335, 35.08453182974156], [128.78711510348714, 35.08442327765545]]]}}, {"type": "Feature", "properties": {"LINK_ID": "4180058300", "ROAD_NAME": "신항남로", "ROAD_RANK": "107", "LANES": 2, "MAX_SPD": 80, "LENGTH": 339.603741223648, "count": 1}, "geometry": {"type": "MultiLineString", "coordinates": [[[128.8351684562523, 35.10232798718038], [128.83569251702517, 35.10368325976709], [128.8360645485908, 35.10463241748609], [128.8363570976351, 35.105226390180555]]]}}, {"type": "Feature", "properties": {"LINK_ID": "4180060400", "ROAD_NAME": "신항로", "ROAD_RANK": "107", "LANES": 3, "MAX_SPD": 60, "LENGTH": 408.744842248305, "count": 9}, "geometry": {"type": "MultiLineString", "coordinates": [[[128.78727966914164, 35.083064921981126], [128.78727994975858, 35.08306491964649], [128.7881329397082, 35.083077865568264], [128.79175026667957, 35.083103145748936], [128.79175998062172, 35.08310313988482]]]}}, {"type": "Feature", "properties": {"LINK_ID": "1410705703", "ROAD_NAME": "신항로", "ROAD_RANK": "104", "LANES": 3, "MAX_SPD": 60, "LENGTH": 462.69441056833, "count": 18}, "geometry": {"type": "MultiLineString", "coordinates": [[[128.82959633060912, 35.08326521789285], [128.82644571102895, 35.08325698953401], [128.82452448350094, 35.08324558534142]]]}}]}